original_S No,original_HOSPITAL NAME,original_ADDRESS,original_CITY,lat,lon,formatted,name,housenumber,street,postcode,district,suburb,city,county,state,country
1,Aastha Eye Hospital,"#590, 6Th Block 3Rd Phase Bsk 3Rd Stage",Bengaluru,12.9861471,77.5598537,"Amrutha Medicals, 403, Dr. Rajkumar Road, Sriramamandir Ward, Bengaluru - 560010, KA, India",Amrutha Medicals,403,Dr. Rajkumar Road,560010,West Zone,Sriramamandir Ward,Bengaluru,Bangalore North,Karnataka,India
2,Aaxis Hospitals,"Bellathur Village, Whitefield Main Road, Kadugodi, Bangalore",Bengaluru,12.97194,77.59369,"Bengaluru, KA, India",,,,,,,Bengaluru,Bangalore,Karnataka,India
3,Aayug Multi Specialty Hospital,"# 477 1St Main, B Block Aecs Layout, Kundanahalli",Bengaluru,12.9535578,77.655733,"1st Main, Konena Agrahara Ward, Bengaluru - 560017, KA, India",1st Main,,1st Main,560017,East Zone,Konena Agrahara Ward,Bengaluru,Bangalore East,Karnataka,India
4,Abhaya Hospital,"17 Dr. M.H. Mari Gowda Road(Hosur Road), Opp. Park Area Wilson Garden Bangalore - 560027",Bengaluru,12.74161,77.448793,"Hosur, KA, India",,,,,,,Hosur,Ramanagara,Karnataka,India
5,Abhayahasta Multispeciality Hospital,"#347/247 2Nd Cross, Kagadasapura Main Road,Cv Raman Nagar",Bengaluru,12.9767936,77.590082,"Bengaluru, KA, India",,,,,,,Bengaluru,Bangalore North,Karnataka,India
6,Akshara Eye Hospital,"S.V. Arcade, Devarachikkana Halli Road",Bengaluru,12.8887812,77.6158231,"GHPS Devarachikkana Halli, Bommanahalli Ward, Bengaluru - 583105, KA, India",GHPS Devarachikkana Halli,,,583105,Bommanahalli Zone,Bommanahalli Ward,Bengaluru,Bangalore South,Karnataka,India
7,Akshaya Nethralaya,"#227/A, Bcehbcs Layout, Vidyagiri Layout, Nagarbhavi Circle",Bengaluru,12.966874,77.587966,"Hudson Circle, Sampangiram Nagar, Bangalore -, KA, India",,,Hudson Circle,,East Bangalore,Sampangiram Nagar,Bangalore,Bangalore,Karnataka,India
8,Apollo Cradle,"No. 58.5Th Cross, 18Th Main Dhanlakshmi Bank Building 6Th Block, Kormangla",Bengaluru,12.9664142,77.5925401,"Apollo Pharmacy, Chidananda Maharashi Ashram Road, Sampangiram Nagar Ward, Bengaluru - 560027, KA, India",Apollo Pharmacy,,Chidananda Maharashi Ashram Road,560027,East Zone,Sampangiram Nagar Ward,Bengaluru,Bangalore North,Karnataka,India
9,Apollo Cradle,"# 25, 46Th Cross, 5Th Block, Jayanagar",Bengaluru,12.92550745,77.5788358,"National College Jayanagar, 2nd Main Road, Karisandra Ward, Bengaluru - 560011, KA, India",National College Jayanagar,,2nd Main Road,560011,South Zone,Karisandra Ward,Bengaluru,Bangalore South,Karnataka,India
10,Apollo Cradle Brookefield,#101/209 Itpl Main Road Kundalhalli Brookefield,Bengaluru,12.9106552,77.6063086,"Homeneeds, No 107, 14th Cross Road, BTM Layout Ward, Bengaluru - 560066, KA, India",Homeneeds,No 107,14th Cross Road,560066,South Zone,BTM Layout Ward,Bengaluru,Bangalore South,Karnataka,India
11,Apollo Hospital,"# 154/11, Opp. Iimb., Bannergahtta Road, Bilekahalli",Bengaluru,12.97194,77.59369,"Bengaluru, KA, India",,,,,,,Bengaluru,Bangalore,Karnataka,India
12,"Apollo Hospitals, Sheshadri Puram (A Unit Of Apollo Hospitals Enterprise Ltd)","New No 1, Old No 28, Platform Road, Sheshadripuram",Bengaluru,12.9852023,77.5720997,"Platform Road, Subhash Nagar, Bengaluru - 560020, KA, India",Platform Road,,Platform Road,560020,West Zone,Subhash Nagar,Bengaluru,Bangalore North,Karnataka,India
13,Apollo Speciality Hospital,"No.21/2 (2) 14Th Cross 3Rd Block, Jayanagar",Bengaluru,12.9411928,77.5839159,"Arya Vaidya Sala Kottakkal, No. 14/1, Marudeva Enclave, 5th Cross Road, Basavanagudi, Bengaluru - 560004, KA, India",Arya Vaidya Sala Kottakkal,"No. 14/1, Marudeva Enclave",5th Cross Road,560004,South Zone,Basavanagudi,Bengaluru,Bangalore North,Karnataka,India
14,Apollo Spectra Hospitals,"# 143, 5Th Block, 1St Cross, Kormangala",Bengaluru,12.949465,77.621252,"National Public School Kormangala, Ejipura, Bangalore - 560047, KA, India",,,National Public School Kormangala,560047,South Bangalore,Ejipura,Bangalore,Bangalore,Karnataka,India
15,Apple Hospital,"No.17/B, 18-20,'C' Sector, Yelhanka- Dodaballapura Main Road  Opposite. Railway Wheel Factory , Yelahanka New Town",Bengaluru,12.9353544,77.6210999,"William Penn Private Limited (Pendels), No.15, 17th B Main Road, Koramangala, Bengaluru - 560095, KA, India",William Penn Private Limited (Pendels),No.15,17th B Main Road,560095,South Zone,Koramangala,Bengaluru,Bangalore South,Karnataka,India
16,Arunodaya Hospitals,"18, 23, Mallasandra Main Road, 4Th & 5Th Cross, Bagalagunte Hesaraghatta Road",Bengaluru,12.9769476,77.6319057,"Vijay wood works, 23, 1st Main Road, Hoysala Nagara, Bengaluru - 560008, KA, India",Vijay wood works,23,1st Main Road,560008,East Zone,Hoysala Nagara,Bengaluru,Bangalore North,Karnataka,India
17,Aster Cmi Hospital,"No. 43/2, Bellary Road, Nh 7, Sahakarnagar",Bengaluru,13.0489944,77.5925491,"Bellary Road, Kempapura, Bengaluru - 560024, KA, India",Bellary Road,,Bellary Road,560024,Yelahanka Zone,Kempapura,Bengaluru,Bangalore North,Karnataka,India
18,Aster Rv Hospital (A Unit Of Aster Dm Health Care Ltd),"CA 37, 24TH MAIN, 1ST PHASE JP NAGAR",Bengaluru,12.915917,77.578729,"2rs Cross, Sarakki, JP Nagar 1st Phase, JP Nagar 1st Phase, Bengaluru - 560078, KA, India",,,"2rs Cross, Sarakki, JP Nagar 1st Phase",560078,South Zone,JP Nagar 1st Phase,Bengaluru,Bangalore,Karnataka,India
19,Astra Super Speciality Hospital,"21/7,Vasanthapura Main Road, Konanakunte Cross,Bengaluru",Bengaluru,12.8937841,77.558542,"Panchvati Comforts, No.253/6 And 7, Konanakunte-Uttarahalli Road, Vasanthapura, Bengaluru - 560062, KA, India",Panchvati Comforts,No.253/6 And 7,Konanakunte-Uttarahalli Road,560062,Bommanahalli Zone,Vasanthapura,Bengaluru,Bangalore South,Karnataka,India
20,Athreya Hospital,"6/2 B, Chandapura, Opp. Suryanagara Phase 1",Bengaluru,12.9075406,77.5733739,"Exit B: JP Nagar 6th Phase, Kanakapura Road, Sarakki, Bengaluru - 560070, KA, India",Exit B: JP Nagar 6th Phase,,Kanakapura Road,560070,South Zone,Sarakki,Bengaluru,Bangalore South,Karnataka,India
21,Atreum Speciality Hospital,"916 D, 80 Feet Road Ideal Homes Townsship Rajarajeshwari Nagar",Bengaluru,12.9732711,77.6468955,"916, 80 Feet Road, Hosa Tippasandra, Bengaluru - 560102, KA, India",,916,80 Feet Road,560102,East Zone,Hosa Tippasandra,Bengaluru,Bangalore,Karnataka,India
22,Aveksha Hospital,"#122, Varadarajaswamy Layout, Singapura Main Road, Near M.S Palya",Bengaluru,12.97194,77.59369,"Sampangiram Nagar (Bangalore), KA, India",,,,,East Bangalore,Sampangiram Nagar,Bangalore,Bangalore,Karnataka,India
23,Axon Specialty Hospital,"No 321, 6Th Main Hal 2Nd Stage Indira Nagar",Bengaluru,12.973892,77.6460904,"Axon Speciality Hospital, 321, 6th Main Road, Hoysala Nagara, Bengaluru - 560038, KA, India",Axon Speciality Hospital,321,6th Main Road,560038,East Zone,Hoysala Nagara,Bengaluru,Bangalore East,Karnataka,India
24,B W Lions Superspeciality Eye Hospital,"#5, Lions Eye Hospial Road (Off. J.C Road ), Bangalore 560002",Bengaluru,13.37274099,77.44721087,"Doddaballapura taluk, 560002, KA, India",Doddaballapura taluk,,,560002,,,,Doddaballapura taluk,Karnataka,India
25,Bangalore Institute Of Gastroenterology,"No. 34, 100 Feet Road (Ashoka Pillar Road), 2Nd Block, Jayanagar, Bnagalore",Bengaluru,12.97194,77.59369,"Bengaluru, KA, India",,,,,,,Bengaluru,Bangalore,Karnataka,India
26,Bangalore Orthopaedic And Surgical Hospital,"No. 426, 3Rd Cross, Hrbr Layout,Kalyan Nagar",Bengaluru,13.0255483,77.6370978,"Sigree Global Grill, 430, Kammanahalli Main Road, Kacharkanahalli, Bengaluru - 560043, KA, India",Sigree Global Grill,430,Kammanahalli Main Road,560043,East Zone,Kacharkanahalli,Bengaluru,Bangalore North,Karnataka,India
27,Basavangudi Medical Centre,"# 84/1, R.V.Road, Basavanagudi",Bengaluru,12.97194,77.59369,"Bengaluru, KA, India",,,,,,,Bengaluru,Bangalore,Karnataka,India
28,Belaku Eye Hospital,"#769&770, I Cross Ring Road Kengeri Upanagara",Bengaluru,12.97194,77.59369,"Bengaluru, KA, India",,,,,,,Bengaluru,Bangalore,Karnataka,India
29,Best Hospital,"Sy.No.76/1,# 413,Hosur Main Road,Chandapura,Bangalore",Bengaluru,12.97194,77.59369,"Bengaluru, KA, India",,,,,,,Bengaluru,Bangalore,Karnataka,India
30,Bgs Gims Hospital,"# 67, Bgs Global Health & Education City, Uttra Halli Main Road, Kengeri",Bengaluru,12.9438501,77.6189683,"Koramangala, 67, Main Road, Koramangala, Bengaluru - 560095, KA, India",Koramangala,67,Main Road,560095,South Zone,Koramangala,Bengaluru,Bangalore South,Karnataka,India
31,Bgs Global Hospital,"Bgs Health And Education City, # 67, Uttara Halli Road, Kengeri",Bengaluru,12.97194,77.59369,"Bengaluru, KA, India",,,,,,,Bengaluru,Bangalore,Karnataka,India
32,Bhagwan Mahaveer Jain Hospital,"No 1.2, Banashankari 3Rd Phase,Avalahalli, Bda 2Nd Layout,Deepanjali Nagara",Bengaluru,12.9498768,77.53223158,"Deepanjali Nagar Industrial Estate, Deepanjali Nagar, Bengaluru -, KA, India",Deepanjali Nagar Industrial Estate,,Deepanjali Nagar Industrial Estate,,South Zone,Deepanjali Nagar,Bengaluru,Bangalore South,Karnataka,India
33,Bhagwan Mahaveer Jain Hospital,"17, Millers Road, Vasanthnagar",Bengaluru,12.9914167,77.5939843,"Millers Road, Vasanth Nagar, Bengaluru - 560052, KA, India",Millers Road,,Millers Road,560052,East Zone,Vasanth Nagar,Bengaluru,Bangalore North,Karnataka,India
34,Bharathy Hospital,"# 4, Prasanthnagar",Bengaluru,12.98821285,77.5921592,"Vikram Hospital, Basaveshara Road, Sampangiram Nagar Ward, Bengaluru - 560052, KA, India",Vikram Hospital,,Basaveshara Road,560052,East Zone,Sampangiram Nagar Ward,Bengaluru,Bangalore North,Karnataka,India
35,Brindhavan Areion Hospital,"#17, 4Th Main Road Chamrajpet",Bengaluru,12.957933,77.5659321,"4th Main Road, Chamarajapete, Bengaluru - 572161, KA, India",4th Main Road,,4th Main Road,572161,West Zone,Chamarajapete,Bengaluru,Bangalore North,Karnataka,India
36,Chaitanya Hospital,"80, P & T Colony, Rt Nagar, Bangalore- 32",Bengaluru,12.9650146,77.5816415,"New Diamond Electro Control, 21, ಗೊಡೌನ್ ರಸ್ತೆ, Dharmaraya Swamy Temple Ward, Bengaluru - 560002, KA, India",New Diamond Electro Control,21,ಗೊಡೌನ್ ರಸ್ತೆ,560002,South Zone,Dharmaraya Swamy Temple Ward,Bengaluru,Bangalore North,Karnataka,India
37,Chanre Rheumatology And Immunology Centre And Research,"#149, 15Th Main, 3Rd Stage, 4Th Block, Water Tank Road, Basaveshwaranagar 15Th Main",Bengaluru,12.971669,77.609672,"KSRP Research and Training Center, Shantala Nagar, Bangalore - 560025, KA, India",,,KSRP Research and Training Center,560025,East Bangalore,Shantala Nagar,Bangalore,Bangalore,Karnataka,India
38,Chaya Hospital,"# 6 C 335, 4Th C Main 6Th Cross, Ombr Layout, Banasavadi",Bengaluru,13.0186045,77.6479433,"Lokhande S Hospital, 9th A Main Road, Banaswadi, Bengaluru - 560043, KA, India",Lokhande S Hospital,,9th A Main Road,560043,East Zone,Banaswadi,Bengaluru,Bangalore East,Karnataka,India
39,Chaya Super Speciality Hospital,"#6, 5Th Main, B Channasandra Main Road, Kasturi Nagar,",Bengaluru,13.0082078,77.652392,"B Channasandra Main Road, Banaswadi, Bengaluru - 560016, KA, India",B Channasandra Main Road,,B Channasandra Main Road,560016,East Zone,Banaswadi,Bengaluru,Bangalore East,Karnataka,India
40,Chinmaya Mission Hospital,Cmh Road Indira Nagar,Bengaluru,12.9782961,77.6369094,"Indira Nagar Double Road, Chinmaya Mission Hospital Road, Hoysala Nagara, Bengaluru - 560038, KA, India",Indira Nagar Double Road,,Chinmaya Mission Hospital Road,560038,East Zone,Hoysala Nagara,Bengaluru,Bangalore North,Karnataka,India
41,Chiraayu Hospital,"No. 1 Pemmegouda Road, Munireddy Palya",Bengaluru,12.96717715,77.59574063,"ITC Gardenia Royal, 1, Field Marshal Cariappa Road, Shantala Nagar, Bengaluru - 560027, KA, India",ITC Gardenia Royal,1,Field Marshal Cariappa Road,560027,East Zone,Shantala Nagar,Bengaluru,Bangalore North,Karnataka,India
42,Chord Road Hospital,"#100 Bhimajyothi, Lic Colony, Woc Road, Basaveshawaranagar, Bangalore",Bengaluru,12.9738156,77.5953925,"Kasturba Road, Sampangiram Nagar Ward, Bengaluru - 560001, KA, India",Kasturba Road,,Kasturba Road,560001,East Zone,Sampangiram Nagar Ward,Bengaluru,Bangalore North,Karnataka,India
43,Citi Hospital,25/91 Chord Road 11 Block Rajajinagar Bangalore,Bengaluru,12.9956506,77.5510696,"Citi Hospital, 25/91, Chord Road, Rajaji Nagar Ward, Bengaluru - 560010, KA, India",Citi Hospital,25/91,Chord Road,560010,West Zone,Rajaji Nagar Ward,Bengaluru,Bangalore North,Karnataka,India
44,City Hospital,"# 205 / 1, Prakash Complex, B.S.A. Road, Frazer Town",Bengaluru,12.972038,77.593982,"Kasturba Road, Sampangiram Nagar, Bangalore -, KA, India",,,Kasturba Road,,East Bangalore,Sampangiram Nagar,Bangalore,Bangalore,Karnataka,India
45,Cloudnine,"# 1533, 9Th Main, 3Rd Block, Jayanagar, Bangalore",Bengaluru,12.9597752,77.6569127,"cloud nine, HAL Old Airport Road, Konena Agrahara Ward, Bengaluru - 560001, KA, India",cloud nine,,HAL Old Airport Road,560001,East Zone,Konena Agrahara Ward,Bengaluru,Bangalore East,Karnataka,India
46,Cloudnine,"# 47, 17Th Cross, 11Th Main , Malleshwaram",Bengaluru,13.0049706,77.57022999,"Malleshwaram Ladies Association, 14th Cross Road, Malleswaram, Bengaluru - 560003, KA, India",Malleshwaram Ladies Association,,14th Cross Road,560003,West Zone,Malleswaram,Bengaluru,Bangalore North,Karnataka,India
47,Cloudnine Hospital Pvt Ltd,"#115, Kodihalli, Old Airport Road",Bengaluru,12.9597752,77.6569127,"cloud nine, HAL Old Airport Road, Konena Agrahara Ward, Bengaluru - 560001, KA, India",cloud nine,,HAL Old Airport Road,560001,East Zone,Konena Agrahara Ward,Bengaluru,Bangalore East,Karnataka,India
48,Cloudnine Whitefield,"Cloudnine, 2Nd Floor, Nagarjuna Sai Signet, Plot 11, Part (Ca) Of Ediz Industrial Area, Sadaramangala Village, Kr Puram, Hobli, Whitefield Main Road",Bengaluru,,,,,,,,,,,,,
49,Comfort Multispeciality Hospital,"Srr Arcade, 23 & 24 Cross, Kaggadasapura Main Road, C V Raman Nagar",Bengaluru,12.97194,77.59369,"Bengaluru, KA, India",,,,,,,Bengaluru,Bangalore,Karnataka,India
50,Cytecare Cancer Hospitals Pvt Ltd,"Near Banglore Cross ,Banglore Hyderabad Hwy Venkatala Yelamanka",Bengaluru,12.97194,77.59369,"Bengaluru, KA, India",,,,,,,Bengaluru,Bangalore,Karnataka,India
51,D G Hospital,"No. 274/275, M.K. Puttalingaiah Road, Padmanabhanagar",Bengaluru,12.97194,77.59369,"Bengaluru, KA, India",,,,,,,Bengaluru,Bangalore,Karnataka,India
52,Deepa Hospital,"# 27, Old Madras Road, K R Puram",Bengaluru,12.9970117,77.6697547,"Old Madras Road, Udaya Nagar, Bengaluru - 560016, KA, India",Old Madras Road,,Old Madras Road,560016,Mahadevapura Zone,Udaya Nagar,Bengaluru,Bangalore East,Karnataka,India
53,Devi Eye hospital HSR layout,"#157/A, Sector-5, outer ring road, opp. J.S.S.Public school, Near HSR BDA, complex, HSR Layout, Bengaluru,",Bengaluru,12.9538216,77.5199158,"Outer Ring Road, Nagarabhavi Ward, Bengaluru - 560072, KA, India",Outer Ring Road,,Outer Ring Road,560072,West Zone,Nagarabhavi Ward,Bengaluru,Bangalore North,Karnataka,India
54,Devi Super Speciality Eye Hospital Private Limited,"#434, 18Th Main, 80 Feet Road, 6Th Block, Koramangala Bus Depot, Koramangala.",Bengaluru,12.9817739,77.6459679,"80 Feet Road, Hosa Tippasandra, Bengaluru - 560102, KA, India",80 Feet Road,,80 Feet Road,560102,East Zone,Hosa Tippasandra,Bengaluru,Bangalore North,Karnataka,India
55,Dharma Kidney Care,"No.909, 47Th Cross, Near Bsnl Compound,, 5Th Block, Jaya Nagar, Bengaluru, Karnataka 560041",Bengaluru,12.9216156,77.5874902,"Bamboo Salon And Spa, No 764/44, First Floor, 37th Cross, 38th Cross Road, Pattabhiram Nagar, Bengaluru - 560041, KA, India",Bamboo Salon And Spa,"No 764/44, First Floor, 37th Cross,",38th Cross Road,560041,South Zone,Pattabhiram Nagar,Bengaluru,Bangalore South,Karnataka,India
56,Digvijaya Hospital,"No 124 7Th Block, Jaya Nagar",Bengaluru,13.005214,77.5505195,"7th Cross Road, Nagapura Ward, Bengaluru - 560086, KA, India",7th Cross Road,,7th Cross Road,560086,West Zone,Nagapura Ward,Bengaluru,Bangalore North,Karnataka,India
57,Divakars Speciality Hospital,"No. 220, 9th Cross, Jp Nagar 2nd Phase",Bengaluru,12.9100629,77.5924585,"Divakars speciality Hospital, 9th Cross Road, J P Nagar, Bengaluru - 560078, KA, India",Divakars speciality Hospital,,9th Cross Road,560078,South Zone,J P Nagar,Bengaluru,Bangalore South,Karnataka,India
58,Divine Speciality Hospital,"#110, 6Th Main Iti Layout Benson Town Post, Bangalore-560046",Bengaluru,12.97587815,77.5906012,"Sampangiram Nagar Ward, Bengaluru, KA, India",,,,560042,East Zone,Sampangiram Nagar Ward,Bengaluru,Bangalore North,Karnataka,India
59,Divyadrishti Eye Hospital,"# 1129, R.P.C.Lay Out, Vijayanagar",Bengaluru,12.9707429,77.5377684,"Vidya Eye Hospital, Sha Shi Marulayya Road, Hampi Nagar, Bengaluru - 560040, KA, India",Vidya Eye Hospital,,Sha Shi Marulayya Road,560040,South Zone,Hampi Nagar,Bengaluru,Bangalore North,Karnataka,India
60,Dr Agarwals Eye Hospital,"Salarpuria Zest Building, No.16, Bannergatta Road, Opp To Shoppers Stop",Bengaluru,12.8822813,77.5957945,"Vasan Eye Care Hospital, Bannergatta Road, 2nd Main Road, Arekere, Bengaluru - 560076, KA, India","Vasan Eye Care Hospital, Bannergatta Road",,2nd Main Road,560076,Bommanahalli Zone,Arekere,Bengaluru,Bangalore South,Karnataka,India
61,Dr Agarwals Eye Hospital,"#2557, Hig Sector B, 16Th B Cross, 3Rd Stage, Yelahanka New Town",Bengaluru,12.9122295,77.5994906,"Dr Agarwals Eye Hospital Ltd, Bannerghatta Road, J P Nagar, Bengaluru - 560076, KA, India",Dr Agarwals Eye Hospital Ltd,,Bannerghatta Road,560076,South Zone,J P Nagar,Bengaluru,Bangalore South,Karnataka,India
62,Dr Agarwals Eye Hospital,"#33, Coles Road, Frazer Town",Bengaluru,12.997511,77.6100772,"Coles Road, Cleveland Town, Bengaluru - 560106, KA, India",Coles Road,,Coles Road,560106,East Zone,Cleveland Town,Bengaluru,Bangalore North,Karnataka,India
63,Dr Agarwals Eye Hospital,"No 30, 80 Ft Road, R.K Layout, Padmanabha Nagar",Bengaluru,12.97194,77.59369,"Bengaluru, KA, India",,,,,,,Bengaluru,Bangalore,Karnataka,India
64,Dr Malathi Manipal Hospital,"45/1, 45Th Cross, 9Th Block, Jayanagar",Bengaluru,12.9257654,77.5824151,"Gold Fingers, No 138, 1st floor, 33A Cross Road, Pattabhiram Nagar, Bengaluru - 560011, KA, India",Gold Fingers,"No 138, 1st floor",33A Cross Road,560011,South Zone,Pattabhiram Nagar,Bengaluru,Bangalore South,Karnataka,India
65,Dr Solanki Eye Hospital Pvt Ltd,"# 191/1, 2Nd Cross, Link Road Malleswaram. Bangalore-03",Bengaluru,12.9775403,77.6004535,"Link Road, Shanthala Nagar, Bengaluru - 560001, KA, India",Link Road,,Link Road,560001,East Zone,Shanthala Nagar,Bengaluru,Bangalore North,Karnataka,India
66,Dr Tulip S Obesity And Diabetes Surgery Centre,"no 640, 12th main 80 feet road, 4th block, koramangala",Bengaluru,12.97194,77.59369,"Bengaluru, KA, India",,,,,,,Bengaluru,Bangalore,Karnataka,India
67,Dr Zamindars Microsurgical Eye Centre,"# 1013, 3Rd Cross, 1St Block, Hrbr Layout, Kalyan Nagar",Bengaluru,13.0229612,77.64147802,"BDA Kalyan Nagar Park, Kalyan Nagar, Bengaluru, Bangalore East, India",BDA Kalyan Nagar Park,,,,East Zone,Kalyan Nagar,Bengaluru,Bangalore East,Karnataka,India
68,Dr. Agarwals  Eye Hospital,"No. 3275, 12Th Main Road",Bengaluru,12.97194,77.59369,"Bengaluru, KA, India",,,,,,,Bengaluru,Bangalore,Karnataka,India
69,Dr. Agarwals  Eye Hospital,"No. 3, Narayanappa Chambers",Bengaluru,12.92611535,77.6319498,"HM Winsford, No. 3/F, 7th C Main Road, Koramangala, Bengaluru - 560034, KA, India",HM Winsford,No. 3/F,7th C Main Road,560034,South Zone,Koramangala,Bengaluru,Bangalore South,Karnataka,India
70,Dr.Agarwals Eye Hospital - Koramangala.,"No. 590, Service Road of Sarjapur Road, 3rd Block, Koramangala, Bangalore",Bengaluru,12.97194,77.59369,"Bengaluru, KA, India",,,,,,,Bengaluru,Bangalore,Karnataka,India
71,Drishti Nethralaya,"#30/A, 11Th Main Road, 50 Feet Road, Raghavendra Block, Srinagar",Bengaluru,13.0083332,77.5622693,"11th Main Road, Malleswaram, Bengaluru - 560055, KA, India",11th Main Road,,11th Main Road,560055,West Zone,Malleswaram,Bengaluru,Bangalore North,Karnataka,India
72,Eskay Healthcare,"#274,3Rd Cross,Brindavan Layout,Shettihalli",Bengaluru,12.9555357,77.5918347,"Respigen healthcare, Kengal Hanumanthaiah Road, Hombegowda Nagara, Bengaluru - 560027, KA, India",Respigen healthcare,,Kengal Hanumanthaiah Road,560027,South Zone,Hombegowda Nagara,Bengaluru,Bangalore North,Karnataka,India
73,Excelcare Hospital,"3/2, 27Th Cross, Industrial Layout, Banshankari 2Nd Stage",Bengaluru,12.94915245,77.59783321,"Agadi Hospital, Siddaiah Road, Wilson Garden, Bengaluru - 560027, KA, India",Agadi Hospital,,Siddaiah Road,560027,South Zone,Wilson Garden,Bengaluru,Bangalore North,Karnataka,India
74,Eye Foundation Ltd,"79/5, Outer Ring Road, Bellandur",Bengaluru,12.9538216,77.5199158,"Outer Ring Road, Nagarabhavi Ward, Bengaluru - 560072, KA, India",Outer Ring Road,,Outer Ring Road,560072,West Zone,Nagarabhavi Ward,Bengaluru,Bangalore North,Karnataka,India
75,Family Hospital Pvt Ltd,"No. 423/2, 60 Feet Road, 1St Main, 1St Stage, 1St Phase Behind Sbm Gokula",Bengaluru,12.97194,77.59369,"Bengaluru, KA, India",,,,,,,Bengaluru,Bangalore,Karnataka,India
76,Femiint Health(A Unit Of Chaithanya Integrated Healthcare Ltd),#34. NEXT TO FORUM VALUE MALL,Bengaluru,12.97194,77.59369,"Bengaluru, KA, India",,,,,,,Bengaluru,Bangalore,Karnataka,India
77,Fortis Hospitals Ltd,"# 14,  Cunnigham Road",Bengaluru,12.98866475,77.59433134,"Travancore House, 14, Cunningham Road, Sampangiram Nagar Ward, Bengaluru - 560052, KA, India",Travancore House,14,Cunningham Road,560052,East Zone,Sampangiram Nagar Ward,Bengaluru,Bangalore North,Karnataka,India
78,Fortis Hospitals Ltd,"# 23, 80 Feet Road, Gurukrupa Layout, 2Nd Stage Nagarbhavi, Near Nagarbhavi Circle",Bengaluru,12.9817739,77.6459679,"80 Feet Road, Hosa Tippasandra, Bengaluru - 560102, KA, India",80 Feet Road,,80 Feet Road,560102,East Zone,Hosa Tippasandra,Bengaluru,Bangalore North,Karnataka,India
79,Fortis Hospitals Ltd,"No 154 / 9, Bilekahalli, Bannerghatta Road",Bengaluru,12.89474355,77.59872946,"Fortis Hospitals, Bannerghatta Road, Bannerghatta Road, Bilekahalli, Bengaluru - 560076, KA, India","Fortis Hospitals, Bannerghatta Road",,Bannerghatta Road,560076,Bommanahalli Zone,Bilekahalli,Bengaluru,Bangalore South,Karnataka,India
80,Fortis La Femme,"#62 Richmond Road, Sacred Heart Church Entry From Mother Teresa Road Richmond Town",Bengaluru,12.965571,77.609502,"Mother Teresa Road, Shanthi Nagar, Bangalore -, KA, India",,,Mother Teresa Road,,East Bangalore,Shanthi Nagar,Bangalore,Bangalore,Karnataka,India
81,Gangothri Hospital,"# 27, Kuvempunagar, 100Ft Ring Road, Bangalore",Bengaluru,12.97194,77.59369,"Bengaluru, KA, India",,,,,,,Bengaluru,Bangalore,Karnataka,India
82,Gayathri Hospital Pvt Ltd,# 91 Magadi Chord Road Vijayanagar,Bengaluru,12.9738507,77.5461726,"Cafe Coffee Day, Chord Road, Vijayanagar, Bengaluru - 560040, KA, India",Cafe Coffee Day,,Chord Road,560040,South Zone,Vijayanagar,Bengaluru,Bangalore North,Karnataka,India
83,Gleneagles Global Hospitals,"No. 5/5,",Bengaluru,12.9590828,77.6037788,"5, Langford Road, Shanthi Nagar, Bengaluru - 560027, KA, India",,5,Langford Road,560027,East Zone,Shanthi Nagar,Bengaluru,Bangalore North,Karnataka,India
84,Gurushree Hi-Tec Multi Speciality Hospital,"# 1558, Opp-Chandra Lay Out Bus Stand, Chandra Lay Out, Vijayanagar",Bengaluru,,,,,,,,,,,,,
85,H K Hospital,"# 106/2, Bangalore Mysore Road, Near Rainbow Bridge, Kengeri",Bengaluru,12.940222,77.5240823,"Bangalore-Mysore Road, Pantarapalya, Bengaluru - 566026, KA, India",Bangalore-Mysore Road,,Bangalore-Mysore Road,566026,Rajarajeshwari Nagar Zone,Pantarapalya,Bengaluru,Bangalore South,Karnataka,India
86,Hbs Hospital,"No.58,Cockburn Road,Shivaji Nagar,Bengaluru",Bengaluru,12.9898627,77.6038165,"Cockburn Road, Shivaji Nagar Ward, Bengaluru - 560051, KA, India",Cockburn Road,,Cockburn Road,560051,East Zone,Shivaji Nagar Ward,Bengaluru,Bangalore North,Karnataka,India
87,Hcg Msr Cancer Centre,"M S Ramaiah Memorial Hospital, M.S.R. Nagar, Msrit Post",Bengaluru,12.992237,77.551107,"Manjunath Nagar Flyover, Rajaji Nagar, Bangalore -, KA, India",,,Manjunath Nagar Flyover,,West Bangalore,Rajaji Nagar,Bangalore,Bangalore,Karnataka,India
88,Healthcare Global Enterprises (HCG),"44-45/2 2Nd Cross, R R Mohan Roy Ext, Bengaluru, Bengaluru, Karnataka, 560027",Bengaluru,12.9767936,77.590082,"Bengaluru, KA, India",,,,,,,Bengaluru,Bangalore North,Karnataka,India
89,Healthcare Global Enterprises (HCG),"Hcg Tower, No. 8, P Kalinga Rao Road, Sampangiramnagar",Bengaluru,12.9651011,77.5871903,"Kalinga Rao Road, Sudhama Nagara, Bengaluru - 560027, KA, India",Kalinga Rao Road,,Kalinga Rao Road,560027,South Zone,Sudhama Nagara,Bengaluru,Bangalore North,Karnataka,India
90,Hosmat Hospital,"45 Magrath Road Off Richmond Road Bangalore, Off Richmond Road",Bengaluru,12.97194,77.59369,"Bengaluru, KA, India",,,,,,,Bengaluru,Bangalore,Karnataka,India
91,International Hospital Ltd,"#111&112, West Of Chord Road, Opp. 1St Block Rajajinagarjunction, Mahalakshmipuram",Bengaluru,12.9987636,77.5482122,"West of Chord Road 2nd Stage, Nagapura Ward, Bengaluru - 560086, KA, India",West of Chord Road 2nd Stage,,,560086,West Zone,Nagapura Ward,Bengaluru,Bangalore North,Karnataka,India
92,Janapriya Hospital,"No.2, 5Th A Cross, Subbiahnapalya Banaswadi Main Road",Bengaluru,12.97194,77.59369,"Bengaluru, KA, India",,,,,,,Bengaluru,Bangalore,Karnataka,India
93,Jayashree Multispeciality Hospital (No cashless for Deluxe Wards and Suite),"No 25, 26, 27 1St Cross “B” Block Vishwapriyanagar Begur",Bengaluru,12.968502,77.595603,"1st Cross Road, Shantala Nagar, Bangalore -, KA, India",,,1st Cross Road,,East Bangalore,Shantala Nagar,Bangalore,Bangalore,Karnataka,India
94,Jayashree Nursing Home,"# 4, 4Th Cross, 4 Block, Kumara Park W, Bangalore",Bengaluru,12.9910265,77.577928,"Kumara Park West, Gandhinagar, Bengaluru - 560020, KA, India",Kumara Park West,,,560020,West Zone,Gandhinagar,Bengaluru,Bangalore North,Karnataka,India
95,K I M S Hospital And Research Centre,"K.R.Road, V.V.Puram",Bengaluru,12.97194,77.59369,"Bengaluru, KA, India",,,,,,,Bengaluru,Bangalore,Karnataka,India
96,K K Hospital,"9A1, 9A2, Opp M.E.C School, A Sector, Yelahanka New Town",Bengaluru,,,,,,,,,,,,,
97,Kangaroo Care U/O Surabhi Health Care And Research,"#89, 17Th Cross Mc Layout,  Near Metro Station Vijayanagar",Bengaluru,13.0130751,77.58111207,"Raman Research Institute, 15th Main Road, Sadhashivanagar, Bengaluru - 560012, KA, India",Raman Research Institute,,15th Main Road,560012,West Zone,Sadhashivanagar,Bengaluru,Bangalore North,Karnataka,India
98,Kanva Sri Sai Hospital,"227, Rajivgandhi Nagar",Bengaluru,,,,,,,,,,,,,
99,Karthik Netralaya Institute Of Ophthalmology Pvt Ltd,"89 7Th Cross, Nr Colony Ashok Nagar, Nr Colony, Ashok Nagar",Bengaluru,12.9662903,77.5925767,"7th Cross, Sampangiram Nagar Ward, Bengaluru - 560027, KA, India",7th Cross,,7th Cross,560027,East Zone,Sampangiram Nagar Ward,Bengaluru,Bangalore North,Karnataka,India
100,Kids Clinic India Pvt Ltd (Cloudnine),"#1/79/4, Bellandur Village Varthur Hobli",Bengaluru,12.94453425,77.67945933,"Vista Lagos Apartement, #328/3/1, Kempapura Main Road, Kempapura, Bengaluru - 560037, KA, India",Vista Lagos Apartement,#328/3/1,Kempapura Main Road,560037,Mahadevapura Zone,Kempapura,Bengaluru,Bangalore East,Karnataka,India
101,Koshys Hospital,"Ramamurthy Nagar Extn, Raghavendra Nagar, Tambuchetty Palya Main Road",Bengaluru,12.97194,77.59369,"Bengaluru, KA, India",,,,,,,Bengaluru,Bangalore,Karnataka,India
102,Krishna Nethralaya,"Mathura Arcade, Above Sbi,Beside Post Offcice Yelahanka New Town",Bengaluru,,,,,,,,,,,,,
103,Kumar Nethralaya,"# 562, 41St Cross, 3Rd Main, 2Nd Block Rajajinagar.",Bengaluru,12.9906244,77.5633161,"Prasad Medicals, 529, 6th Cross Road, Sriramapura, Bengaluru - 560010, KA, India",Prasad Medicals,529,6th Cross Road,560010,West Zone,Sriramapura,Bengaluru,Bangalore North,Karnataka,India
104,Kusuma Hospital,237/37 10Th Main 50Ft Road Nagendra Block Srinagar Bangalore,Bengaluru,12.9420124,77.5506918,"Kusuma Hospital, 237/37, 11th Main Road, Banashankari 1st Stage, Bengaluru - 560050, KA, India",Kusuma Hospital,237/37,11th Main Road,560050,South Zone,Banashankari 1st Stage,Bengaluru,Bangalore South,Karnataka,India
105,Lakshmi Eye Hospital,"No. 290, 15Th Cross Opp. Kanti Sweets",Bengaluru,12.9726833,77.63366847,"St. George Orthodox Church, 75, 6th Main Road, Jogupalya, Bengaluru - 560038, KA, India",St. George Orthodox Church,75,6th Main Road,560038,East Zone,Jogupalya,Bengaluru,Bangalore North,Karnataka,India
106,Lakshmi Hospital,"402, 2Nd Cross, Judges Colony Ganganagar, 402, 2Nd Cross, Judges Colony Ganganagar, Bangalore - 560032",Bengaluru,13.024256,77.592312,"Judges Colony, Gangenahalli, Bangalore -, KA, India",,,Judges Colony,,East Bangalore,Gangenahalli,Bangalore,Bangalore,Karnataka,India
107,Lakshmi Maternity Home,"# 95 & 96, 15Th Cross, Margosa Road, Malleswaram Bangalore",Bengaluru,13.00157175,77.56947215,"121/1, Margosa Road, Malleswaram, Bengaluru - 560003, KA, India",,121/1,Margosa Road,560003,West Zone,Malleswaram,Bengaluru,Bangalore North,Karnataka,India
108,Leelavatti Multispeciality Hospital,"#7.2Nd Main Road, Chamarajpet Bengalore",Bengaluru,12.9583116,77.6398227,"2nd Main Road, Domlur Ward, Bengaluru - 560071, KA, India",2nd Main Road,,2nd Main Road,560071,East Zone,Domlur Ward,Bengaluru,Bangalore North,Karnataka,India
109,M S Ramaiah Hospitals,"M S Ramaiah Memorial Hospital, M.S.R. Nagar, Msr It Post, Bangalore",Bengaluru,12.992237,77.551107,"Manjunath Nagar Flyover, Rajaji Nagar, Bangalore -, KA, India",,,Manjunath Nagar Flyover,,West Bangalore,Rajaji Nagar,Bangalore,Bangalore,Karnataka,India
110,M S Ramaiah Narayana Hrudayalaya Heart Center,"6Th Floor, M.S.Ramaiah Memoral Hospital Building, Msrit Post, New Bel Road",Bengaluru,13.0368157,77.5659898,"New BEL Road SOCIAL, 472, New BEL Road, Aramane Nagara Ward, Bengaluru - 560054, KA, India",New BEL Road SOCIAL,472,New BEL Road,560054,West Zone,Aramane Nagara Ward,Bengaluru,Bangalore North,Karnataka,India
111,Mahanth Hospital,"# 8, 1-St Cross, N.G.R.Lay Out, Roopena Agrahara",Bengaluru,12.9079615,77.6235715,"Mahanth Hospital, Viratnagar Main Road, Bommanahalli, Bengaluru - 560068, KA, India",Mahanth Hospital,,Viratnagar Main Road,560068,Bommanahalli Zone,Bommanahalli,Bengaluru,Bangalore South,Karnataka,India
112,Mallya Hospital,No 2 Vittal Mallya Road,Bengaluru,12.968129,77.595108,"2, Vittal Mallya Road, Sampangiram Nagar Ward, Bengaluru - 560027, KA, India",,2,Vittal Mallya Road,560027,East Zone,Sampangiram Nagar Ward,Bengaluru,Bangalore,Karnataka,India
113,Manipal Hospital,"#98 Rustom Bagh, Hal Airport Road",Bengaluru,12.9606014,77.6416119,"HAL Old Airport Road, Domlur Ward, Bengaluru - 560071, KA, India",HAL Old Airport Road,,HAL Old Airport Road,560071,East Zone,Domlur Ward,Bengaluru,Bangalore North,Karnataka,India
114,Manipal hospital ( ealier Vikram Hospital Bengaluru Private Limited),"# 71/1, Millers Road",Bengaluru,12.9936498,77.6071245,"Millers Road, Cleveland Town, Bengaluru - 560106, KA, India",Millers Road,,Millers Road,560106,East Zone,Cleveland Town,Bengaluru,Bangalore North,Karnataka,India
115,Manipal Hospitals (originally incorporated with the name of Columbia Asia Hospital group),"Hebbal Kirloskar Business Park Bellary Road, Hebbal, Bangalore",Bengaluru,13.0390068,77.5896503,"Hebbala, Bellary Road, Hebbal, Bengaluru - 560024, KA, India",Hebbala,,Bellary Road,560024,East Zone,Hebbal,Bengaluru,Bangalore North,Karnataka,India
116,Manipal Hospitals (originally incorporated with the name of Columbia Asia Hospital group),"#26/1, Dr.Rajkumar Road, Malleswaram West",Bengaluru,13.0117276,77.5549217,"Popeyes, 26/1, Dr. Rajkumar Road, Subramanya Nagar, Bengaluru - 560055, KA, India",Popeyes,26-Jan,Dr. Rajkumar Road,560055,West Zone,Subramanya Nagar,Bengaluru,Bangalore North,Karnataka,India
117,Manipal Hospitals (originally incorporated with the name of Columbia Asia Hospital group),"Sy. No. 10P & 12P, Ramagondanahalli Village, Varthur Hobli, Whitefield, Bangalore East Taluk",Bengaluru,13.0246961,77.6407898,"Multitech Industries India Private Limited, 2, Outer Ring Road, Chelekere, Bengaluru - 560043, KA, India",Multitech Industries India Private Limited,2,Outer Ring Road,560043,Mahadevapura Zone,Chelekere,Bengaluru,Bangalore East,Karnataka,India
118,Manipal Hospitals (originally incorporated with the name of Columbia Asia Hospital group),"Survey No 46/2, Ward No 150, Ambalipura Sarjapur Road",Bengaluru,12.9188314,77.6697997,"Ittina Wellness Centre, No. 18/2A, Bellanduru Main Road, Ambalipura, Bengaluru - 560102, KA, India",Ittina Wellness Centre,No. 18/2A,Bellanduru Main Road,560102,Mahadevapura Zone,Ambalipura,Bengaluru,Bangalore South,Karnataka,India
119,Manipal Hospitals Pvt Ltd,"143, 212-2015 Kr Puram Hobli, Off Hoodi Village, Epip, Industrial Area, Whitefield, Bengaluru,",Bengaluru,12.9765018,77.590991,"Bengaluru Logo, Doctor B R Ambedkar Veedhi, Sampangiram Nagar Ward, Bengaluru - 560051, KA, India",Bengaluru Logo,,Doctor B R Ambedkar Veedhi,560051,East Zone,Sampangiram Nagar Ward,Bengaluru,Bangalore North,Karnataka,India
120,Manipal North Side Hospital,"# 71 11Th Main Road, Opp To Railway Station, Malleswaram, Bangalore",Bengaluru,13.0011275,77.5639285,"Manipal Northside Hospital, 71, 11th Main Road, Malleswaram, Bengaluru - 560003, KA, India",Manipal Northside Hospital,71,11th Main Road,560003,West Zone,Malleswaram,Bengaluru,Bangalore North,Karnataka,India
121,Manjunatha Nethralaya,"No.44, 1St Floor Bhuvaneshwari Nagar, T-Dasarahalli Ammaji Complex, Hesaraghatta Main Road",Bengaluru,13.0594405,77.5070267,"Hesaraghatta Main Road, Bagalagunte, Bengaluru - 560090, KA, India",Hesaraghatta Main Road,,Hesaraghatta Main Road,560090,Dasarahalli Zone,Bagalagunte,Bengaluru,Bangalore North,Karnataka,India
122,Manjushree Nursing Home Pvt Ltd,"No.22/70, St. Johns Road",Bengaluru,12.97194,77.59369,"Bengaluru, KA, India",,,,,,,Bengaluru,Bangalore,Karnataka,India
123,Marigold Sugar Hospitals And Research Centre,"# 243, 3Rd Cross, 7Th Main Road, Mico Layout, Btm 2Nd Stage",Bengaluru,12.9395468,77.5510059,"7th Main, Banashankari 1st Stage, Bengaluru - 560039, KA, India",7th Main,,7th Main,560039,South Zone,Banashankari 1st Stage,Bengaluru,Bangalore South,Karnataka,India
124,Maruthi Hospital.,2374/26 Platinum Plaza Vijayanagar Club Road Bangalore,Bengaluru,12.9677607,77.5413282,"Maruthi Hospital, 9th K Main Road, Hosahalli, Bengaluru - 560072, KA, India",Maruthi Hospital,,9th K Main Road,560072,South Zone,Hosahalli,Bengaluru,Bangalore North,Karnataka,India
125,Mazumdar Shaw Medical Centre Unit Of Narayana Health,Nh Health City No. 25A/A Bommasandya Industrial Area Hosur Road,Bengaluru,12.97194,77.59369,"Bengaluru, KA, India",,,,,,,Bengaluru,Bangalore,Karnataka,India
126,Medcare Hospital,"No.12, S S Temple Street,Vv Puram",Bengaluru,12.941477,77.5473726,"Temple Street, Girinagar, Bengaluru - 560039, KA, India",Temple Street,,Temple Street,560039,South Zone,Girinagar,Bengaluru,Bangalore South,Karnataka,India
127,Mediscope Hospital Pvt Ltd,"#11 , Pillanna Garden , Iii Stage",Bengaluru,12.985972,77.601145,"Balappa Garden, Jayamahal, Bangalore -, KA, India",,,Balappa Garden,,East Bangalore,Jayamahal,Bangalore,Bangalore,Karnataka,India
128,Meenakshi Hospital,"No. 979, 25Th Main Road Hanumanthnagar",Bengaluru,12.97194,77.59369,"Bengaluru, KA, India",,,,,,,Bengaluru,Bangalore,Karnataka,India
129,Motherhood,"No 324, Cmh Road, Indiranagar 1St Stage",Bengaluru,12.9784409,77.6375845,"Motherhood Hospital(Unit Of Rhea Healthcare Pvt Ltd), Chinmaya Mission Hospital Road, Hoysala Nagara, Bengaluru - 560038, KA, India",Motherhood Hospital(Unit Of Rhea Healthcare Pvt Ltd),,Chinmaya Mission Hospital Road,560038,East Zone,Hoysala Nagara,Bengaluru,Bangalore North,Karnataka,India
130,Motherhood,"No 514/1-2-3, Kaikondara Village Opp. Total Mall, Sarjapur Road",Bengaluru,12.97194,77.59369,"Bengaluru, KA, India",,,,,,,Bengaluru,Bangalore,Karnataka,India
131,Motherhood,"No. 2266/17/18, G Block, Sahakara Nagar, Bangalore",Bengaluru,12.9334939,77.53402908,"G-Block, Pie R Cube, Hosakerehalli, Bengaluru - 560085, KA, India",G-Block,,Pie R Cube,560085,South Zone,Hosakerehalli,Bengaluru,Bangalore South,Karnataka,India
132,Motherhood - Banagirinagar,4/19 30Th Main Road Banashankari 3Rd Stage Banagiri Nagar,Bengaluru,12.9784409,77.6375845,"Motherhood Hospital(Unit Of Rhea Healthcare Pvt Ltd), Chinmaya Mission Hospital Road, Hoysala Nagara, Bengaluru - 560038, KA, India",Motherhood Hospital(Unit Of Rhea Healthcare Pvt Ltd),,Chinmaya Mission Hospital Road,560038,East Zone,Hoysala Nagara,Bengaluru,Bangalore North,Karnataka,India
133,Motherhood Hospital,"No. 5Ac 914, 1St Block Kalyana Nagar Hrbr Layout, Outer Ring Road, Banaswadi Benagaluru",Bengaluru,13.0203944,77.6512682,"Procare Hospital, 914, 5th A Cross Road, Outer Ring Road, Horamavu, Bengaluru - 560043, KA, India",Procare Hospital,"914, 5th A Cross Road",Outer Ring Road,560043,Mahadevapura Zone,Horamavu,Bengaluru,Bangalore East,Karnataka,India
134,Mtb Orthopaedic And Trauma Hospital,Mahadevpura Opp. Phoenix Mall Whitefield Road Bengaluru,Bengaluru,,,,,,,,,,,,,
135,Naina Advanced Eye Centre,"#50, 100 Feet Road Banaswadi Bengaluru",Bengaluru,13.0164336,77.6505978,"100 Feet Road, Banaswadi, Bengaluru - 560043, KA, India",100 Feet Road,,100 Feet Road,560043,East Zone,Banaswadi,Bengaluru,Bangalore East,Karnataka,India
136,Nandana Health Care Servicespvt Ltd,"# 320/C 321/A, 1St Stage, 2Nd Phase, West Of Chord Road, Manjunathnagar",Bengaluru,12.97194,77.59369,"Bengaluru, KA, India",,,,,,,Bengaluru,Bangalore,Karnataka,India
137,Nano Hospitals,"#79, Dlf City, Near Arekere Sai Baba Temple, Narayanappanahalli, Btm 6Th Stage, 2Nd Block",Bengaluru,13.0292576,77.5735789,"2nd Cross,RMV 2nd stage, 2nd block, Raj Mahal Vilas, Bengaluru - 560094, KA, India","2nd Cross,RMV 2nd stage, 2nd block",,"2nd Cross,RMV 2nd stage, 2nd block",560094,East Zone,Raj Mahal Vilas,Bengaluru,Bangalore North,Karnataka,India
138,Narayana Health,"Hosur Road Anekal Taluk, No. 258 / A Bommasandra Industrial Area Anekal Taluk Bangalore - 562158, Hosur Road, Anekal Taluk",Bengaluru,12.99040285,77.73357293,"Narayana Multispeciality Hospital, Plot No. 3 & 4, Sadarmangala Road, Kadugodi, Bengaluru - 560066, KA, India",Narayana Multispeciality Hospital,Plot No. 3 & 4,Sadarmangala Road,560066,Mahadevapura Zone,Kadugodi,Bengaluru,Bangalore East,Karnataka,India
139,Narayana Hrudayalaya Pvt Ltd,"Basant Health Center Building, Site No. 1. Opp To Hsr Club, Hsr Layout",Bengaluru,12.913914,77.6372735,"Narayana Hrudayalaya Superspecialty Clinic and Diagnostic Center, 12th Main Road, HSR Layout, Bengaluru - 560102, KA, India",Narayana Hrudayalaya Superspecialty Clinic and Diagnostic Center,,12th Main Road,560102,Bommanahalli Zone,HSR Layout,Bengaluru,Bangalore South,Karnataka,India
140,Narayana Nethralaya,"#121/C, Chord Road, Rajajinagar, 1St R Block, (Near Mysore Soap Factory) Bangalore",Bengaluru,12.9741206,77.5462012,"Chord Road, Vijayanagar, Bengaluru - 560040, KA, India",Chord Road,,Chord Road,560040,South Zone,Vijayanagar,Bengaluru,Bangalore North,Karnataka,India
141,Narayana Nethralaya 2,"#258/A, Hosur Road, Bommasandra",Bengaluru,12.9585353,77.6061062,"Hosur Road, Shanthi Nagar, Bengaluru - 560025, KA, India",Hosur Road,,Hosur Road,560025,East Zone,Shanthi Nagar,Bengaluru,Bangalore North,Karnataka,India
142,Narayana Nethralaya Unit 4,"No.63, Next To Royal Meenakshi Mall, Bannerghatta Road, Hulimavu,",Bengaluru,13.326513,77.483319,"Bangalore Rural, India",Bangalore Rural,,,,,,,Bangalore Rural,Karnataka,India
143,Narayana Netralaya Unit 3,"No 37, Castle Street Opp Sacred Heart Church Ashoknagar",Bengaluru,12.9671401,77.6094485,"Narayana Netralaya, 37, Castle Street, Ashok Nagar, Bengaluru - 560025, KA, India",Narayana Netralaya,37,Castle Street,560025,East Zone,Ashok Nagar,Bengaluru,Bangalore North,Karnataka,India
144,Narayana Super Speciality Hospitals,No 24 9Th Cross Margosa Road Malleshwaram,Bengaluru,,,,,,,,,,,,,
145,Navachethana Hospital,"17/A2 A-Sector , Opp Railwheel Factory Yelahanka , New Town Bangalore",Bengaluru,13.1037314,77.5837165,"Navachethana Hospital, 3rd B Cross, Atturu, Bengaluru - 560064, KA, India",Navachethana Hospital,,3rd B Cross,560064,Yelahanka Zone,Atturu,Bengaluru,Yelahanka taluku,Karnataka,India
146,Navashakti Nethralaya,"#1803, Outer Ring Road, Hbr Layout, 5Th Block, 1St Stage, Near Nagawara Flyover",Bengaluru,12.9066671,77.5730015,"Exit D: Outer Ring Road, Outer Ring Road, Kadirenahalli, Bengaluru - 560078, KA, India",Exit D: Outer Ring Road,,Outer Ring Road,560078,South Zone,Kadirenahalli,Bengaluru,Bangalore South,Karnataka,India
147,Nayak Hospital,"3367, 5Th Cross, Gayathrinagar",Bengaluru,12.97194,77.59369,"Bengaluru, KA, India",,,,,,,Bengaluru,Bangalore,Karnataka,India
148,Ndr Hospital,"No.4 B Sector, Opp. Yelahanka New Town Bus Stand",Bengaluru,13.0965172,77.5787745,"N.D.R. Hospital, 16th B Cross Road, Yelahanka New Town, Bengaluru - 560064, KA, India",N.D.R. Hospital,,16th B Cross Road,560064,Yelahanka Zone,Yelahanka New Town,Bengaluru,Yelahanka taluku,Karnataka,India
149,Neha Prakash Hospital,"Neha Prakash Hospital 8, 6Th Main Road, 5Th Phase, Yelahanka New Town, Bangalore - 560 064",Bengaluru,13.004716,77.5768152,"6th Main Road, Kadu Malleshwar Ward, Bengaluru - 560080, KA, India",6th Main Road,,6th Main Road,560080,West Zone,Kadu Malleshwar Ward,Bengaluru,Bangalore North,Karnataka,India
150,Nelivigi Eye Hospital And Surgical Centre,"# 446/21, Above Vijaya Bank, Opp. Amba Bajaj Showroom, Diagonally Opp. To Bangalore Central Mall, Bellandur",Bengaluru,12.9439111,77.6803454,"Bellandur Lake Road, Kempapura, Bengaluru - 560103, KA, India",Bellandur Lake Road,,Bellandur Lake Road,560103,Mahadevapura Zone,Kempapura,Bengaluru,Bangalore East,Karnataka,India
151,Nethra Eye Hospital,"#8,POOJARY LAYOUT,80FT ROAD,R.M.V.2ND STAGE",Bengaluru,13.0160331,77.6428522,"Banasawadi 80ft Road, 7th Main Road, Kalyan Nagar, Bengaluru - 560043, KA, India",Banasawadi 80ft Road,,7th Main Road,560043,East Zone,Kalyan Nagar,Bengaluru,Bangalore North,Karnataka,India
152,Nethradhama Hospital Pvt Ltd,"#66, Indiranagar Double Road, Hal 2Nd Stage",Bengaluru,12.9739788,77.6358199,"Indiranagar Double Road, Jogupalya, Bengaluru - 560008, KA, India",Indiranagar Double Road,,Indiranagar Double Road,560008,East Zone,Jogupalya,Bengaluru,Bangalore North,Karnataka,India
153,Nethradhama Hospital Pvt Ltd - Rajajinagar.,"#30, 19Th Main Road, 2Nd Block Rajajinagar, Land Mark: Navarang Theatre",Bengaluru,12.9960617,77.5514458,"19th Main Road, Rajaji Nagar Ward, Bengaluru - 560010, KA, India",19th Main Road,,19th Main Road,560010,West Zone,Rajaji Nagar Ward,Bengaluru,Bangalore North,Karnataka,India
154,Nethradhama Hospitals Pvt Ltd,"# 256/14, Kanakapura Mn Rd, Jayanagar",Bengaluru,12.97194,77.59369,"Bengaluru, KA, India",,,,,,,Bengaluru,Bangalore,Karnataka,India
155,Nrr Hospital,"393A, Hesarghatta Main Road, Chikkasandra, Near Chikkabanavara Railway Station",Bengaluru,12.97194,77.59369,"Bengaluru, KA, India",,,,,,,Bengaluru,Bangalore,Karnataka,India
156,Nu Hospital Pvt Ltd,"#4/1, West Of Chord Road, Rajajinagar, Next To Iskcon Temple",Bengaluru,12.9987636,77.5482122,"West of Chord Road 2nd Stage, Nagapura Ward, Bengaluru - 560086, KA, India",West of Chord Road 2nd Stage,,,560086,West Zone,Nagapura Ward,Bengaluru,Bangalore North,Karnataka,India
157,Nu Hospitals Pvt Ltd,"C.A.6, 15Th Main, 11Th Cross, Padmanabhanagar, Bangalore",Bengaluru,13.011845,77.5526061,"NU Hospitals, Chord Road, Nagapura Ward, Bengaluru - 560055, KA, India",NU Hospitals,,Chord Road,560055,West Zone,Nagapura Ward,Bengaluru,Bangalore North,Karnataka,India
158,Nuo Garden City Eye Hospital,Near Hyper Bazaar,Bengaluru,12.9513766,77.6225836,"Hyper Bazaar, Ejipura Main Road, Vannarpete Ward, Bengaluru - 560047, KA, India",Hyper Bazaar,,Ejipura Main Road,560047,East Zone,Vannarpete Ward,Bengaluru,Bangalore North,Karnataka,India
159,Omega Multispeciality Hospital,"#1236, Ward No. 4 B Sector Hig 1&2 Phase Yelahanka New Town",Bengaluru,12.9175511,77.6039486,"Vedam Ayurveda Multispeciality Hospital, 57, 1st Cross Road, Jayanagar East Ward, Bengaluru - 560029, KA, India",Vedam Ayurveda Multispeciality Hospital,57,1st Cross Road,560029,South Zone,Jayanagar East Ward,Bengaluru,Bangalore South,Karnataka,India
160,Ovum Birthing Center kalyannagar,"#916 5TH A CROSS, OUTER RING ROAD HRBR LAYOUT, KALYAN NAGAR",Bengaluru,12.9538216,77.5199158,"Outer Ring Road, Nagarabhavi Ward, Bengaluru - 560072, KA, India",Outer Ring Road,,Outer Ring Road,560072,West Zone,Nagarabhavi Ward,Bengaluru,Bangalore North,Karnataka,India
161,Ovum Hospitals A Unit Of Neonatal Care And Research Institute Pvt Ltd banaswadi,"#220, 7TH MAIN ROAD, HRBR LAYOUT, I BLOCK, BANASWADI",Bengaluru,13.0040708,77.604801,"7th Main Road I T I Layout, S K Garden, Bengaluru - 560046, KA, India",7th Main Road I T I Layout,,7th Main Road I T I Layout,560046,East Zone,S K Garden,Bengaluru,Bangalore North,Karnataka,India
162,Ovum Woman And Child Speciality Hospital - Banashankari,"NO. 216/A 100FEET OUTER RING ROAD, 2ND BLOCK 3RD PHASE, BANASHANKARI 3RD STAGE",Bengaluru,,,,,,,,,,,,,
163,P D Hinduja Sindhi Hospital,Sampangiramanagar,Bengaluru,12.957668,77.601452,"P Street, Shanthi Nagar, Bangalore -, KA, India",,,P Street,,East Bangalore,Shanthi Nagar,Bangalore,Bangalore,Karnataka,India
164,P M Santhosha Hospital,ward no 198 hemmege pura kengeri,Bengaluru,13.0014143,77.6200825,"BBMP Contact Point - Ward No. 60, 1st Main Road, Richards Town, Bengaluru - 560084, KA, India",BBMP Contact Point - Ward No. 60,,1st Main Road,560084,East Zone,Richards Town,Bengaluru,Bangalore North,Karnataka,India
165,Padmashree Nuring And Maternity Home,"1108/30, 10Th Main",Bengaluru,12.97194,77.59369,"Bengaluru, KA, India",,,,,,,Bengaluru,Bangalore,Karnataka,India
166,Panacea Hospital,"# 611, 612, Nagarabhavi Main Road, 2Nd Satge Vinayaka Layout Nagarbhavi",Bengaluru,12.97194,77.59369,"Bengaluru, KA, India",,,,,,,Bengaluru,Bangalore,Karnataka,India
167,Pavan Hospital,"#110, Jj Towers Gandhi Nagar",Bengaluru,,,,,,,,,,,,,
168,People Tree Hospitals,"#2, Tumkur Road, Goraguntepalya",Bengaluru,13.028377,77.539199,"2, Tumkur Road, Opp. Taj Vivanta, Goraguntepalya, HMT Ward, Bengaluru - 560022, KA, India",,2,"Tumkur Road, Opp. Taj Vivanta, Goraguntepalya",560022,Rajarajeshwari Nagar Zone,HMT Ward,Bengaluru,Bangalore,Karnataka,India
169,Pinnacle Hospital,"282/3, Byatanarayanapura, Near Gaali Anjaneya Temple, Opp. Canara Bank, Mysuru Main Road, Bengaluru",Bengaluru,12.97194,77.59369,"Bengaluru, KA, India",,,,,,,Bengaluru,Bangalore,Karnataka,India
170,Pooja 3D Hospital & Diabetes Centre,"# 103, Bansawadi Main Road, Next To Bata Show Room & Flyover, Subbaiahanapalya",Bengaluru,12.97194,77.59369,"Bengaluru, KA, India",,,,,,,Bengaluru,Bangalore,Karnataka,India
171,Poornima Hospital,"No. 200/A, Hmt Layout, Rt Nagar",Bengaluru,13.0263344,77.595128,"Poornima Hospital, 9th Cross Road, Manorayanapalya Ward, Bengaluru - 560032, KA, India",Poornima Hospital,,9th Cross Road,560032,East Zone,Manorayanapalya Ward,Bengaluru,Bangalore North,Karnataka,India
172,Prabha Eye Clinic And Research Centre,"# 504, 40Th Cross, 8Th Block, Jayanagar, Bangalore",Bengaluru,12.967033,77.597513,"Bangalore Club, Shantala Nagar, Bangalore - 560001, KA, India",,,Bangalore Club,560001,East Bangalore,Shantala Nagar,Bangalore,Bangalore,Karnataka,India
173,Pradnya Nethralaya,"#04, 6Th Cross, Ganesh Block, Dinnur Road, Rt Nagar",Bengaluru,13.0247707,77.5943128,"Dinnur Main Road, Manorayanapalya Ward, Bengaluru - 560032, KA, India",Dinnur Main Road,,Dinnur Main Road,560032,East Zone,Manorayanapalya Ward,Bengaluru,Bangalore North,Karnataka,India
174,Prakriya Hospital,"Survey No 41, Raja Reddy Layout, 8Th Mile, Tumkur Road, Nagasandra Post Bangalore",Bengaluru,13.0296629,77.5385017,"Tumkur Road, HMT Ward, Bengaluru - 560022, KA, India",Tumkur Road,,Tumkur Road,560022,Rajarajeshwari Nagar Zone,HMT Ward,Bengaluru,Bangalore North,Karnataka,India
175,Prasad Eye Hospital,"No. 11, Krinshan Nagar Indistrial Layout, D.R.C. Post, Near Christ College, Hosur Main Road, Bangalore - 560 029.",Bengaluru,12.9839499,77.5985328,"Tiger Trail, 11, Venkataswamy Naidu Road, Sampangiram Nagar Ward, Bengaluru - 560001, KA, India",Tiger Trail,11,Venkataswamy Naidu Road,560001,East Zone,Sampangiram Nagar Ward,Bengaluru,Bangalore North,Karnataka,India
176,"Prasad Hospital, (prasad slv hospital)","SITE NO. 4/31, 1ST MAIN",Bengaluru,12.8843713,77.5766859,"1st Main, Konanakunte, Bengaluru - 560083, KA, India",1st Main,,1st Main,560083,Bommanahalli Zone,Konanakunte,Bengaluru,Bangalore South,Karnataka,India
177,Prashantha Hospital,"# 90/D, Bommana Halli Circle",Bengaluru,,,,,,,,,,,,,
178,Premier Health Care,"No. 164, 1St Cross,1St Main Isro Layout",Bengaluru,12.900006,77.5574238,"1st Main Road, ISRO Layout, Bengaluru - 560082, KA, India",1st Main Road,,1st Main Road,560082,South Zone,ISRO Layout,Bengaluru,Bangalore South,Karnataka,India
179,Premier Sanjeevini Hospital,"# 6/2, Tumkur Road, T.Dasara Halli",Bengaluru,13.0303853,77.5372129,"Tumkur Road, HMT Ward, Bengaluru - 560022, KA, India",Tumkur Road,,Tumkur Road,560022,Rajarajeshwari Nagar Zone,HMT Ward,Bengaluru,Bangalore North,Karnataka,India
180,Prerana Kims Kidney Stone Centre,"Kims Hospital Campus, V V Puram",Bengaluru,12.995235,77.591483,"M V Jayaram Road, Vasanth Nagar, Bangalore -, KA, India",,,M V Jayaram Road,,East Bangalore,Vasanth Nagar,Bangalore,Bangalore,Karnataka,India
181,Primecare Good Health Matters Multispeciality Hospital,"no 158, MM road, frazer town bangalore",Bengaluru,13.0004137,77.6172088,"MM Road, Frazer Town, Bengaluru - 560084, KA, India",MM Road,,MM Road,560084,East Zone,Frazer Town,Bengaluru,Bangalore North,Karnataka,India
182,Pristine Hospital And Research Centre Pvt Ltd,"#877 Modi Hospital Road West Of Chord Road, Rajajinagar",Bengaluru,12.9978931,77.5436127,"Pristline Hospital, 877, Modi Hospital Main Road, Rajaji Nagar Ward, Bengaluru - 560079, KA, India",Pristline Hospital,877,Modi Hospital Main Road,560079,West Zone,Rajaji Nagar Ward,Bengaluru,Bangalore North,Karnataka,India
183,Prolife Multispeciality Hospital,#249/248/284/101 International Airport Road Byatarayanapura,Bengaluru,12.9767936,77.590082,"Bengaluru, KA, India",,,,,,,Bengaluru,Bangalore North,Karnataka,India
184,Punya Hospital India Pvt Ltd,"# 52, 53/10, 80 Feet Road, Mig Khb Colony, Basaveshwarnagar",Bengaluru,12.9817739,77.6459679,"80 Feet Road, Hosa Tippasandra, Bengaluru - 560102, KA, India",80 Feet Road,,80 Feet Road,560102,East Zone,Hosa Tippasandra,Bengaluru,Bangalore North,Karnataka,India
185,Raghavendra People Tree Hospital,#13/4 T Dasarahalli,Bengaluru,12.9274958,77.5906045,"My Home Cement Industries Limited, 416/13, 31st Cross Road, Byrasandra Ward, Bengaluru - 560011, KA, India",My Home Cement Industries Limited,416/13,31st Cross Road,560011,South Zone,Byrasandra Ward,Bengaluru,Bangalore South,Karnataka,India
186,Rainbow Childrens Hospital & Birthright - Bg Road,"Road: No 178/1 & 178/2, Opposite Janardhan Towers, Bilekahalli, B G Road",Bengaluru,12.966793,77.597504,"Brig. Hill Annexe, Shantala Nagar, Bangalore - 560027, KA, India",,,Brig. Hill Annexe,560027,East Bangalore,Shantala Nagar,Bangalore,Bangalore,Karnataka,India
187,Rainbow Childrens Medicare Pvt Ltd,"Survey No 8/5, Doddanekundi Village, Marathahalli, Kr Puram, Outer Ring Road",Bengaluru,13.0093342,77.5798001,"Affinity, 1, 8th Main Road, Sadhashivanagar, Bengaluru - 560080, KA, India",Affinity,1,8th Main Road,560080,West Zone,Sadhashivanagar,Bengaluru,Bangalore North,Karnataka,India
188,Rajashri Grandhim Speciality Hospital,"No.349, 5Th Main, 11Th Cross, Bilekahalli Ayappa Temple Road,Vijaya Bank Layout",Bengaluru,12.97194,77.59369,"Bengaluru, KA, India",,,,,,,Bengaluru,Bangalore,Karnataka,India
189,Raksha Multi Speciality Hospital,"# 141/ 142, 1St Main, Krishnananda Nagar, K.H.B.Colony, Police Quarters, Nandini Layout",Bengaluru,13.0128002,77.5314189,"19th Main, Nandini Layout, Nandini Layout, Bengaluru - 560096, KA, India","19th Main, Nandini Layout",,"19th Main, Nandini Layout",560096,West Zone,Nandini Layout,Bengaluru,Bangalore North,Karnataka,India
190,Rangadore Memorial Hospital,"1St Cross, Shankarapuram, Basavanagudi",Bengaluru,12.9483481,77.5707957,"Gandhi Bazar , North Road, Basavanagudi, Vanivilas Road, Sunkenahalli Ward, Bengaluru - 560004, KA, India","Gandhi Bazar , North Road, Basavanagudi",,Vanivilas Road,560004,South Zone,Sunkenahalli Ward,Bengaluru,Bangalore North,Karnataka,India
191,Rangalakshmii Netralaya,"#2054 13Th B Main, 3Rd Phase , Mother Dairy Cross, Yelahanka New Town",Bengaluru,12.97194,77.59369,"Bengaluru, KA, India",,,,,,,Bengaluru,Bangalore,Karnataka,India
192,Retina Institute Of Karnataka,"122, 5th Main, Chamrajpet",Bengaluru,12.95727,77.5640827,"Retina Institute Of Karnataka, 5th Main Road, Chamarajapete, Bengaluru - 560018, KA, India",Retina Institute Of Karnataka,,5th Main Road,560018,West Zone,Chamarajapete,Bengaluru,Bangalore North,Karnataka,India
193,Sachethana Eye Clinic,"#32, 9Th Cross 1St Main",Bengaluru,12.955464,77.59029,"9th Cross Road, Hombegowda Nagara, Bangalore -, KA, India",,,9th Cross Road,,South Bangalore,Hombegowda Nagara,Bangalore,Bangalore,Karnataka,India
194,Sagar Chandramma Hospitals,"No. 1, Vani Vilas Road, V. V Puram",Bengaluru,13.0092653,77.5621798,"Vani Vilas, 18th Cross Road, Malleswaram, Bengaluru - 560055, KA, India",Vani Vilas,,18th Cross Road,560055,West Zone,Malleswaram,Bengaluru,Bangalore North,Karnataka,India
195,Sagar Hospitals,"# 44 / 54 30Th Cross Tilaknagar, Jayanagar Extn Bangalore",Bengaluru,12.97194,77.59369,"Bengaluru, KA, India",,,,,,,Bengaluru,Bangalore,Karnataka,India
196,Sagar Hospitals,"Behind Dayanand Sagar Institutions, Shavige Malleshwara Hills, Kumarswamy Layout",Bengaluru,,,,,,,,,,,,,
197,Sai Thunga Health Care,# 187/209/ 186 RING ROAD AGARA HSR LAYOUT NEAR JAGHANATH TEMPLE,Bengaluru,12.9575682,77.6416592,"Xora Software Systems Pvt Ltd, 72, Inner Ring Road, Domlur Ward, Bengaluru - 560071, KA, India",Xora Software Systems Pvt Ltd,72,Inner Ring Road,560071,East Zone,Domlur Ward,Bengaluru,Bangalore North,Karnataka,India
198,Sailaja Superspeciality Eye Hospital,"21,22 1St Floor Above State Bank Of Mysore Horamavu",Bengaluru,,,,,,,,,,,,,
199,Sakra World Hospital,"52/2 & 52/3 Devarabeesanahalli, Verthur Hoobli",Bengaluru,12.97194,77.59369,"Bengaluru, KA, India",,,,,,,Bengaluru,Bangalore,Karnataka,India
200,Samprathi Eye Hospital And Squint Centre,"# 111, Railway Parallel Road, 7Th Cross, Kumara Park East",Bengaluru,12.9932806,77.580691,"Samprathi Eye Hospital And Squint Centre, Railway Parallel Road, Vasanth Nagar, Bengaluru - 560020, KA, India",Samprathi Eye Hospital And Squint Centre,,Railway Parallel Road,560020,East Zone,Vasanth Nagar,Bengaluru,Bangalore North,Karnataka,India
201,Samruddhi Eye Hospital,"No.2 Near Fortuna Vista Apartment Kodigehalli Main Road Thindlu,Vidyaranya Pura Post",Bengaluru,12.97194,77.59369,"Bengaluru, KA, India",,,,,,,Bengaluru,Bangalore,Karnataka,India
202,Sanjeevini Hospital,"# 760, Last Bus Stop, Mahalakshmi Layout, Bangalore",Bengaluru,12.916131,77.588769,"Jnana Sanjeevini, 1st A Cross Road, J P Nagar, Bengaluru - 560078, KA, India",Jnana Sanjeevini,,1st A Cross Road,560078,South Zone,J P Nagar,Bengaluru,Bangalore South,Karnataka,India
203,Sankalp Nethralaya And Polyclinic,"85/1, 19Th Main Hsr Layout Sector 1, Bangalore",Bengaluru,12.9487281,77.6003812,"KH phrama, 299/1, BTS Main Road, Wilson Garden, Bengaluru - 560027, KA, India",KH phrama,299/1,BTS Main Road,560027,South Zone,Wilson Garden,Bengaluru,Bangalore North,Karnataka,India
204,Sankara Eye Hospital,"Varthur Road, Kundalahalli Gate",Bengaluru,13.017371,77.567922,"ATM Gate Road (Tara Marg), Aramane Nagara, Bangalore -, KA, India",,,ATM Gate Road (Tara Marg),,West Bangalore,Aramane Nagara,Bangalore,Bangalore,Karnataka,India
205,Saptagiri Hospital,# 15 Chikkasandra Hesaraghatta Main Road,Bengaluru,12.97194,77.59369,"Bengaluru, KA, India",,,,,,,Bengaluru,Bangalore,Karnataka,India
206,Sathya Sai Orthopaedic And Multispeciality Hospital,"#20/1 Bhattarahalli, Old Madras Road Near Rto",Bengaluru,12.97194,77.59369,"Bengaluru, KA, India",,,,,,,Bengaluru,Bangalore,Karnataka,India
207,Shaker Nursing Home,"No.260, Sampige Road, Near 17Th Cross, Malleshwaram",Bengaluru,13.0067922,77.5711665,"Sampige Road, Sadhashivanagar, Bengaluru - 560003, KA, India",Sampige Road,,Sampige Road,560003,West Zone,Sadhashivanagar,Bengaluru,Bangalore North,Karnataka,India
208,Shanthi Hospital And Research Center Pvt Ltd,"No 307, 40Th Cross 8Th Block Jayanagar",Bengaluru,12.9199814,77.57788,"40th Cross Road, Jayanagar 8th Block, Bengaluru - 560070, KA, India",40th Cross Road,,40th Cross Road,560070,South Zone,Jayanagar 8th Block,Bengaluru,Bangalore South,Karnataka,India
209,Shekar Eye Hospital (A Unit Of Varasiddi Hospital),No. 633 100 Ft. Ring Road J.P.Nagar 3Rd Phase,Bengaluru,12.96681255,77.6411874,"Tristar Apartments, 1216, 15th Main Road, Domlur Ward, Bengaluru - 560008, KA, India",Tristar Apartments,1216,15th Main Road,560008,East Zone,Domlur Ward,Bengaluru,Bangalore North,Karnataka,India
210,Shekar Super Speciality Eye Centre,"No.704, 3Rd Block, Bel Layout, Vidyaranyapura Main Road, Bengaluru",Bengaluru,12.97194,77.59369,"Bengaluru, KA, India",,,,,,,Bengaluru,Bangalore,Karnataka,India
211,Shekhar Hospital,"No.81, Bull Temple Road",Bengaluru,12.9521114,77.5676496,"Bull Temple Road, Sunkenahalli Ward, Bengaluru - 560019, KA, India",Bull Temple Road,,Bull Temple Road,560019,South Zone,Sunkenahalli Ward,Bengaluru,Bangalore North,Karnataka,India
212,Shekhar Hospital,"(A Unit Of Shekhar Nursing Home) No. 942/45, 28Th Main, 9Th Block, Jayanagar, Bangalore",Bengaluru,12.9854042,77.6031557,"C No.5th Street, Shivaji Nagar Ward, Bengaluru - 560051, KA, India",C No.5th Street,,C No.5th Street,560051,East Zone,Shivaji Nagar Ward,Bengaluru,Bangalore North,Karnataka,India
213,Shirdi Sai Hospital Pvt Ltd,"No. 519, 2Nd Main, Nethravathi St, Devasandra, New Bel Road",Bengaluru,12.97194,77.59369,"Bengaluru, KA, India",,,,,,,Bengaluru,Bangalore,Karnataka,India
214,Shivashakti Multispeciacity Hospital.,"12/2/B, Kenchanapura Cross, Nagadevanahalli. Kengeri Hobli.Bangalore-560056",Bengaluru,12.97194,77.59369,"Bengaluru, KA, India",,,,HOBLI.BANGALORE-560056,,,Bengaluru,Bangalore,Karnataka,India
215,Shreya Hospital,"73, 3Rd Main, 6Th Cross, Behind Icici Atm, Kengeri Satellite Town, Bangalore",Bengaluru,12.97388635,77.57122126,"73, Tank Bund Road, Gandhinagar, Bengaluru - 560053, KA, India",73,,Tank Bund Road,560053,West Zone,Gandhinagar,Bengaluru,Bangalore North,Karnataka,India
216,Shushrusha Hospital,"B B Road Yelahanka, Bangaloer 560064",Bengaluru,13.05353205,77.61891004,"Manyata N2 Wing B, Thanisandra, Bengaluru, Bangalore East, India",Manyata N2 Wing B,,,,Yelahanka Zone,Thanisandra,Bengaluru,Bangalore East,Karnataka,India
217,Siddhi Eye Care,"229, 7Th Cross, Indiranagar, 1St Stage",Bengaluru,12.9799683,77.63968,"7th Cross Road, Hoysala Nagara, Bengaluru - 560038, KA, India",7th Cross Road,,7th Cross Road,560038,East Zone,Hoysala Nagara,Bengaluru,Bangalore North,Karnataka,India
218,South City Hospital,"53/1(45), Shalini Susheela Road, Lalbagh Upparahalli, Bangalore",Bengaluru,12.98279095,77.59627303,"i145, 145, Infantry Road, Sampangiram Nagar Ward, Bengaluru - 560001, KA, India",i145,145,Infantry Road,560001,East Zone,Sampangiram Nagar Ward,Bengaluru,Bangalore North,Karnataka,India
219,Sparsh Hospital,"29/P2, The Health City, Hosur Road, Bommasandra, Bangalore - 560099",Bengaluru,12.8069333,77.69575336,"Sparsh Hospital, Bengaluru Urban, Hosur Road, Suryanagar Phase 1, Kittaganahalli - 560099, KA, India","Sparsh Hospital, Bengaluru Urban",,Hosur Road,560099,Chandapura,Suryanagar Phase 1,Kittaganahalli,Anekal,Karnataka,India
220,Sparsh Hospital For Advanced Surgeries,"# 146, Infantry Road, Opp To Police Commissioners Office",Bengaluru,12.9833434,77.5953922,"146, Infantry Road, Sampangiram Nagar Ward, Bengaluru - 560051, KA, India",,146,Infantry Road,560051,East Zone,Sampangiram Nagar Ward,Bengaluru,Bangalore,Karnataka,India
221,Sparsh Superspeciality Hospital,"#4/1, Tumkur Road, Next To Rns Motors, Yeshwanthpur",Bengaluru,13.0303853,77.5372129,"Tumkur Road, HMT Ward, Bengaluru - 560022, KA, India",Tumkur Road,,Tumkur Road,560022,Rajarajeshwari Nagar Zone,HMT Ward,Bengaluru,Bangalore North,Karnataka,India
222,Specialist Health System Pvt Ltd,"No. 216, 7Th Main, 80 Feet Road, 1St Block, Hrbr Layout, Kalyannagar",Bengaluru,12.9817739,77.6459679,"80 Feet Road, Hosa Tippasandra, Bengaluru - 560102, KA, India",80 Feet Road,,80 Feet Road,560102,East Zone,Hosa Tippasandra,Bengaluru,Bangalore North,Karnataka,India
223,Springleaf Health Care Pvt ltd,"#60/3, Konapana Agrahara, Opp. Infosys Convention Centre, Hosur Main Road, Electronics City.",Bengaluru,12.97194,77.59369,"Bengaluru, KA, India",,,,,,,Bengaluru,Bangalore,Karnataka,India
224,Sree Lakshmi Multi Speciality Hospital,"#94/2,NEAR HOGASANDRA BUS STOP,BEGUR MAIN ROAD",Bengaluru,12.8860675,77.615541,"Begur Main Road, Hulimavu, Bengaluru - 560076, KA, India",Begur Main Road,,Begur Main Road,560076,Bommanahalli Zone,Hulimavu,Bengaluru,Bangalore South,Karnataka,India
225,Sreenagar Hospital,"855/856, Ramanjeneya Main Road Srinagar",Bengaluru,12.97194,77.59369,"Bengaluru, KA, India",,,,,,,Bengaluru,Bangalore,Karnataka,India
226,Sri Eye Care,"No. 118, 80 Feet Road, 1St Stage, 1St Block Hbr Layout, (Opp. Shirdi Sai Mandir & Mini Iskcon)",Bengaluru,12.9743857,77.6469645,"New Tippasandra Main Road, 80 Feet Road, Hosa Tippasandra, Bengaluru - 560038, KA, India",New Tippasandra Main Road,,80 Feet Road,560038,East Zone,Hosa Tippasandra,Bengaluru,Bangalore East,Karnataka,India
227,Sri Jayadeva Institute Of Cardiovascular Sciences And Research,"Jayanagar 9Th Block, Bannerghatta Road, Bangalore - 560069",Bengaluru,12.912599,77.5999807,"Bannerghatta Road, BTM Layout Ward, Bengaluru - 560069, KA, India",Bannerghatta Road,,Bannerghatta Road,560069,South Zone,BTM Layout Ward,Bengaluru,Bangalore South,Karnataka,India
228,Sri Lakshmi Hospital,"5, 6 & 7, Nagappa Reddy Layout,Kaggadsapura, C V Ramannagar Post",Bengaluru,,,,,,,,,,,,,
229,Sri Maruthi Hospital,"# 50 Kondappa Garden, Kogilu Road, Maruthi Nagar, Yelahanka, Bangalore",Bengaluru,,,,,,,,,,,,,
230,Sri Maruthi Nethralaya,"18, 1St Floor, Above Airtel Office,17Th Cross, Mrcr Road, Behind Maruthi Mandir, Vijayanagar",Bengaluru,12.97194,77.59369,"Bengaluru, KA, India",,,,,,,Bengaluru,Bangalore,Karnataka,India
231,Sri Ram Nethralaya,"No.2, 1St Floor (Adjoining Brdcc Bank), Opp Ganesha Temple, Near Old Police Station, K R Puram, K R Puram Bangalore",Bengaluru,12.9767936,77.590082,"Bengaluru, KA, India",,,,,,,Bengaluru,Bangalore North,Karnataka,India
232,Sri Sai Ram Hospital,"# 6, J.C Industrial Area, Yelachenahalli Near Metro Kanakpura Main Road",Bengaluru,12.97194,77.59369,"Bengaluru, KA, India",,,,,,,Bengaluru,Bangalore,Karnataka,India
233,Sri Shankara Cancer Hospital And Research Centre.,"1St Cross, Shankarapuram, Basavangudi",Bengaluru,12.9422105,77.5741507,"Basavangudi Police Station, Krishna Rajendra Road, Basavanagudi, Bengaluru - 560004, KA, India",Basavangudi Police Station,,Krishna Rajendra Road,560004,South Zone,Basavanagudi,Bengaluru,Bangalore North,Karnataka,India
234,Sri Venkateshwara Nethralaya,120 S S Complex 9Th Mani Road Ideal Homes Township Raja Rajeshwari Nagar Bangalore,Bengaluru,12.9767936,77.590082,"Bengaluru, KA, India",,,,,,,Bengaluru,Bangalore North,Karnataka,India
235,Srusthi Hospital,"No 30, Kodichikkanahalli Main Rd, Opp BWSSB Water Tank, Kaveri Nagar, Bommanahalli",Bengaluru,12.8933075,77.6106157,"Kodichikkanahalli Main Road, Bilekahalli, Bengaluru - 560076, KA, India",Kodichikkanahalli Main Road,,Kodichikkanahalli Main Road,560076,Bommanahalli Zone,Bilekahalli,Bengaluru,Bangalore South,Karnataka,India
236,"SSNMC SUPER SPECIALITY HOSPITAL Sparsh Hospital, Rajarajeshwari Nagar","No. 8 Ideal Homes Township,Near Icon International School Rr Nagar, Hbcs Layout",Bengaluru,13.0346,77.628856,"HBR Layout, Bangalore, India",HBR Layout,,,,East Bangalore,HBR Layout,Bangalore,Bangalore,Karnataka,India
237,St Marthas Hospital,"Nrupatunga Road, Bangalore",Bengaluru,12.974906,77.58679,"Nrupatunga Road, Sampangiram Nagar, Bangalore -, KA, India",,,Nrupatunga Road,,East Bangalore,Sampangiram Nagar,Bangalore,Bangalore,Karnataka,India
238,Sudharsana Nethralaya,"452, R S Plaza 1St Floor(Above Kids Kingdom), Between 6Th & 7Th Cross, Sampige Road, Malleswaram",Bengaluru,13.0067922,77.5711665,"Sampige Road, Sadhashivanagar, Bengaluru - 560003, KA, India",Sampige Road,,Sampige Road,560003,West Zone,Sadhashivanagar,Bengaluru,Bangalore North,Karnataka,India
239,Suguna Hospital,"#1/A, 87, Dr. Raj Kumar Road, 4th N block Rajaji Nagar, Bangalore",Bengaluru,12.977943,77.549729,"Dr. Raj Kumar Ward, Bengaluru, KA, India",Dr. Raj Kumar,,,560040,West Zone,Dr. Raj Kumar Ward,Bengaluru,Bangalore,Karnataka,India
240,Sukruthi Eye Care Microsurgical Centre,"148, Vyalikaual, Malleswaram 11Th Cross, Bangalore",Bengaluru,13.0020083,77.5763887,"Sukruthi Eye Care Microsurgical Centre, 11th Cross Road, Rajamahal Guttahalli, Bengaluru - 560003, KA, India",Sukruthi Eye Care Microsurgical Centre,,11th Cross Road,560003,West Zone,Rajamahal Guttahalli,Bengaluru,Bangalore North,Karnataka,India
241,Sun Orthopaedic Hospital,"# 24, Brindavan Nagar, 80Ft Main Road, Near Chowdeshwari Bus Stand, Mathikere, Bangalore",Bengaluru,12.97194,77.59369,"Bengaluru, KA, India",,,,,,,Bengaluru,Bangalore,Karnataka,India
242,Sunayana Eye Hospital,"# 1156, 26Th Main, 4Th T Block, Jayanagar",Bengaluru,12.9255233,77.5937748,"Sunayana Eye Hospital, 26th Main Road, Pattabhiram Nagar, Bengaluru - 560041, KA, India",Sunayana Eye Hospital,,26th Main Road,560041,South Zone,Pattabhiram Nagar,Bengaluru,Bangalore South,Karnataka,India
243,Sundar Hospital,"#01&02, Hennur Main Road, Lingaraja Puram",Bengaluru,13.0133352,77.6262902,"Hennur Main Road, Hennur, Bengaluru - 540045, KA, India",Hennur Main Road,,Hennur Main Road,540045,East Zone,Hennur,Bengaluru,Bangalore North,Karnataka,India
244,Sunetra Eye Hospital,"No. 519/34, 10Th Main B.S.K. I Stage, Bangalore",Bengaluru,12.9854042,77.6031557,"C No.5th Street, Shivaji Nagar Ward, Bengaluru - 560051, KA, India",C No.5th Street,,C No.5th Street,560051,East Zone,Shivaji Nagar Ward,Bengaluru,Bangalore North,Karnataka,India
245,Svastha Hospital,"Site No.3, Narayanappa Garden Main Road, Whitefield, Bangalore",Bengaluru,12.97194,77.59369,"Bengaluru, KA, India",,,,,,,Bengaluru,Bangalore,Karnataka,India
246,Swastik Eye Hospital,No. 76 Vani Vilas Road Basavangudi,Bengaluru,,,,,,,,,,,,,
247,T R Hospital,"# 1 To 7, Kothnur Dinne Main Road, J.P.Nagar 8Th Phase",Bengaluru,12.97194,77.59369,"Bengaluru, KA, India",,,,,,,Bengaluru,Bangalore,Karnataka,India
248,Tathagat Heart Care Centre,"No.31/32 Cresent Road  Mallige Medical Centre Premises Opp. Suvarna News, Shivanand Circle",Bengaluru,12.97194,77.59369,"Bengaluru, KA, India",,,,,,,Bengaluru,Bangalore,Karnataka,India
249,The Bangalore Hospital,"No.202. R.V. Road, South End Circle Jayanagar, Bangalore",Bengaluru,12.9382573,77.5800556,"South End Circle, Rashtriya Vidyalaya Road, Basavanagudi, Bengaluru - 560011, KA, India",South End Circle,,Rashtriya Vidyalaya Road,560011,South Zone,Basavanagudi,Bengaluru,Bangalore North,Karnataka,India
250,The Heart Centre ( A Unit Of Frontier Healthcare India Pvt Ltd),Opp. To Fortune Hotel Millers Tank Bund Road Vasanthnagar,Bengaluru,12.989721,77.594556,"Millers Tank Bund Road, Vasanth Nagar, Bangalore -, KA, India",,,Millers Tank Bund Road,,East Bangalore,Vasanth Nagar,Bangalore,Bangalore,Karnataka,India
251,THE LIFE PLUS HOSPITAL ( A UNIT OF ASHRITHA HEALTHCARE),"266/C Indiranagar, 80 Feet Road, Sir Cv Raman Hospital Road, Near Cmh Hospital",Bengaluru,12.9962979,77.5452778,"Indiranagar, Rajaji Nagar Ward, Bengaluru - 560086, KA, India",Indiranagar,,,560086,West Zone,Rajaji Nagar Ward,Bengaluru,Bangalore North,Karnataka,India
252,Trinity Hospital And Heart Foundation,"Near Rv Teacher College Circle, Basavanagudi, Basavanagudi",Bengaluru,12.97194,77.59369,"Bengaluru, KA, India",,,,,,,Bengaluru,Bangalore,Karnataka,India
253,Udhbhava Hospital,"No. 114, 100 Feet Ring Road, Banashankari 3Rd Stage, Bangalore - 560085",Bengaluru,12.9262321,77.5479944,"BESCOM Office, 114, Outer Ring Road, Bhuvaneshwari Nagar, Bengaluru - 560085, KA, India",BESCOM Office,114,Outer Ring Road,560085,South Zone,Bhuvaneshwari Nagar,Bengaluru,Bangalore South,Karnataka,India
254,Unity Lifeline Hospital,"#193.2Nd Block, 2Nd Stage, Nagarbhavi, Near Bda Complex, Nagarbhavi",Bengaluru,12.9855775,77.5383394,"6th Cross, 2nd Stage, Basaveshwaranagar, Dasarahalli, Bengaluru - 560079, KA, India","6th Cross, 2nd Stage, Basaveshwaranagar",,"6th Cross, 2nd Stage, Basaveshwaranagar",560079,West Zone,Dasarahalli,Bengaluru,Bangalore North,Karnataka,India
255,V Care Hospital,"#29, Ist Main Road, 1St A Block, Deve Gowda Road, Rt Nagar, Bangalore",Bengaluru,12.9735807,77.5794876,"Hotel Bangalore Gate, 9, 12, Kempegowda Road, Gandhinagar, Bengaluru - 560009, KA, India",Hotel Bangalore Gate,"9, 12",Kempegowda Road,560009,West Zone,Gandhinagar,Bengaluru,Bangalore North,Karnataka,India
256,Vagus Superspeciality Hospital,"18Th Cross, 4Th Main, Malleshwaram",Bengaluru,12.997542,77.569036,"Malleshwaram Grounds, Malleswaram, Bengaluru - 560003, KA, India",,,Malleshwaram Grounds,560003,West Zone,Malleswaram,Bengaluru,Bangalore,Karnataka,India
257,Vasan Eye Care Hospital,"# 897/C, 80 Feet Road, 6Th Block Koramangala",Bengaluru,12.9817739,77.6459679,"80 Feet Road, Hosa Tippasandra, Bengaluru - 560102, KA, India",80 Feet Road,,80 Feet Road,560102,East Zone,Hosa Tippasandra,Bengaluru,Bangalore North,Karnataka,India
258,Vasan Eye Care Hospital,"#389 New 46, 19Th Main 1St Block Rajajinagar",Bengaluru,12.97194,77.59369,"Bengaluru, KA, India",,,,,,,Bengaluru,Bangalore,Karnataka,India
259,Vasan Eye Care Hospital,"# 28 & 29, 7Th Main Diagonal Road, Opp To Maiyas Hotel & Vinayak Temple, Jayanagar 4Th Block , Bangalore-560011.",Bengaluru,12.9395468,77.5510059,"7th Main, Banashankari 1st Stage, Bengaluru - 560039, KA, India",7th Main,,7th Main,560039,South Zone,Banashankari 1st Stage,Bengaluru,Bangalore South,Karnataka,India
260,Vasan Eye Care Hospital,"# 205-4C, 4Th Cross, 3Rd Block, Hrbr Layout, Near Hennur Bus Depot, Banaswadi, Bangalore-560043",Bengaluru,12.9402371,77.6253403,"Vasan Eye Care Hospital, Koramangala, Srinivagilu Main Road, Koramangala, Bengaluru - 560095, KA, India","Vasan Eye Care Hospital, Koramangala",,Srinivagilu Main Road,560095,South Zone,Koramangala,Bengaluru,Bangalore South,Karnataka,India
261,Vasan Eye Care Hospital,"#25/5-D, Outer Ring Road, Doddanekundi, Marathalli",Bengaluru,12.97194,77.59369,"Bengaluru, KA, India",,,,,,,Bengaluru,Bangalore,Karnataka,India
262,Vasan Eye Care Hospital,"Seetha Complex, No.483, 16Th Cross, 18Th Main Rajarajeshwari Nagar",Bengaluru,13.0877558,77.583399,"18th Main, Yelahanka Satellite Town, Bengaluru - 560160, KA, India",18th Main,,18th Main,560160,Yelahanka Zone,Yelahanka Satellite Town,Bengaluru,Yelahanka taluku,Karnataka,India
263,Vasan Eye Care Hospital,"Sri Murthy Complex, No.43, Garvey Bhav Palya Hongasandra Village Begur, Hobli, Hosur Main Road, Bommanahalli",Bengaluru,12.905312,77.6303621,"emids Technologies Pvt Ltd, Survey Number 1/1, Hosur Main Road, Bommanahalli, Hosur Road, HSR Layout Ward, Bengaluru - 583105, KA, India",emids Technologies Pvt Ltd,"Survey Number 1/1, Hosur Main Road, Bommanahalli",Hosur Road,583105,Bommanahalli Zone,HSR Layout Ward,Bengaluru,Bangalore South,Karnataka,India
264,Vasan Eye Care Hospital,"# Vijayalakshmi Arcade, No 533, Ganga Nagar, R T Nagar, Opp Bmtc Bus Stop",Bengaluru,12.9402371,77.6253403,"Vasan Eye Care Hospital, Koramangala, Srinivagilu Main Road, Koramangala, Bengaluru - 560095, KA, India","Vasan Eye Care Hospital, Koramangala",,Srinivagilu Main Road,560095,South Zone,Koramangala,Bengaluru,Bangalore South,Karnataka,India
265,Vasan Eye Care Hospital,"# 1127/A, 7Thsector, Near Bda Complex, Hsr Layout",Bengaluru,12.9121673,77.6347685,"Vasan Eye Care Hospital HSR Layout, 17th Cross Road, HSR Layout, Bengaluru - 560102, KA, India",Vasan Eye Care Hospital HSR Layout,,17th Cross Road,560102,Bommanahalli Zone,HSR Layout,Bengaluru,Bangalore South,Karnataka,India
266,Vasan Eye Care Hospital,"Shivam Arcade, 41St Main Road, Kanakapura Main Road, Sarraki Gate",Bengaluru,12.97194,77.59369,"Sampangiram Nagar (Bangalore), KA, India",,,,,East Bangalore,Sampangiram Nagar,Bangalore,Bangalore,Karnataka,India
267,Vasan Eye Care Hospital,Dps Tower No 40 1St Floor Above Icici Bank Ltd Banner Ghatta Road Arekere Bangalore,Bengaluru,,,,,,,,,,,,,
268,Vasavi Hospital,"#15, 70Th Cross, 14Th Main, 1St Stage, Kumaraswamy Layout",Bengaluru,12.8956436,77.5554743,"1st Main road BSK 5th stage, Vasanthapura, Bengaluru - 560082, KA, India",1st Main road BSK 5th stage,,1st Main road BSK 5th stage,560082,Bommanahalli Zone,Vasanthapura,Bengaluru,Bangalore South,Karnataka,India
269,Vijaya Nethralaya,"#5, 20Th Cross, Malgala Underpass, Ring Road, Nagarbhavi 2Nd Stage.",Bengaluru,13.0001486,77.6808494,"Namma Metro Line 5, Outer Ring Road, B. Narayanapura, Bengaluru - 560093, KA, India",Namma Metro Line 5,,Outer Ring Road,560093,Mahadevapura Zone,B. Narayanapura,Bengaluru,Bangalore East,Karnataka,India
270,Vijayanagar Hospital,"No. 46, 17Th Cross, Mc Road, Viajayanagar",Bengaluru,12.985994,77.5874287,"The Executive Centre, 46, Palace Road, High Grounds, Bengaluru - 560001, KA, India",The Executive Centre,46,Palace Road,560001,East Zone,High Grounds,Bengaluru,Bangalore North,Karnataka,India
271,Vijayashree Hospital,"#3 , Gottigere, Bennarghatta Main Road",Bengaluru,12.97194,77.59369,"Sampangiram Nagar (Bangalore), KA, India",,,,,East Bangalore,Sampangiram Nagar,Bangalore,Bangalore,Karnataka,India
272,Vinayaka Hospital,# 110 Ist Main 80 Ft. Road S.B.M Colony B.S.K. I St Stage Hanumanthanagar,Bengaluru,12.9506884,77.5925268,"Alphaa, 433/10, Lalbagh Fort Road, Wilson Garden, Bengaluru - 560068, KA, India",Alphaa,433/10,Lalbagh Fort Road,560068,South Zone,Wilson Garden,Bengaluru,Bangalore North,Karnataka,India
273,Vinayaka Nethralaya,"#66/A, 7Th Main Road, N.S. Palya, Btm 2Nd Stage, Btm Layout, Bangalore- 560076.",Bengaluru,12.9181533,77.5875816,"7th Main Road, Pattabhiram Nagar, Bengaluru - 566041, KA, India",7th Main Road,,7th Main Road,566041,South Zone,Pattabhiram Nagar,Bengaluru,Bangalore South,Karnataka,India
274,Vittala International Institute Of Ophthalmology,"No 1 2Nd Cross, 2Nd Main, Bsk 3Rd Stage, 2 Main, Bsk 3 Stg",Bengaluru,12.8957037,77.555019,"3rd Cross Road Bsk 5th Stage, Vasanthapura, Bengaluru - 560082, KA, India",3rd Cross Road Bsk 5th Stage,,3rd Cross Road Bsk 5th Stage,560082,Bommanahalli Zone,Vasanthapura,Bengaluru,Bangalore South,Karnataka,India
275,Yashomati Hospitals Private Limited (A Unit Of Aayugs),"No. 2371/3, Hal Airport, Varthur Road, Munnekolala",Bengaluru,12.97194,77.59369,"Bengaluru, KA, India",,,,,,,Bengaluru,Bangalore,Karnataka,India
